SERVICIO GEOLOGICO COLOMBIANO- RED NACIONAL DE ACELEROGRAFOS DE COLOMBIA
SISMO DE SALGAR (ANTIOQUIA) 1994/02/07 12:50:15 ML=4.7
LATITUD DEL EVENTO(GRADOS): 5.968
LONGITUD DEL EVENTO(GRADOS): -75.992
PROFUNDIDAD DEL EVENTO (Km): 0
CODIGO DE LA ESTACION: CTUTU
Estacion:TUTUNENDO Geol:ROCA Topo:ONDULADA
LATITUD DE LA ESTACION (GRADOS): 5.746
LONGITUD DE LA ESTACION (GRADOS): -76.546
DISTANCIA EPICENTRAL: 66.2475675025 km
DISTANCIA HIPOCENTRAL: 66.2475675025 km
INTERVALO DE MUESTREO (SEGUNDOS): 0.005
NUMERO DE DATOS: 3584
DURACION (SEGUNDOS): 17.92
UNIDADES: cm/s^2
TIPO DE EQUIPO: SSA
ESCALA MAXIMA (G): 2
CORRECCION DE LINEA BASE: LINEA BASE NO REMOVIDA
TIPO DE DATOS: NO CORREGIDO
         EW                  VER                  NS
[...]
     2.92968720         -30.27343760         -14.64843760
     2.92968720         -30.27343760         -14.64843760
     2.92968720         -30.27343760         -14.64843760
     1.95312480         -30.27343760         -14.64843760
     1.95312480         -30.27343760         -14.64843760
     1.95312480         -30.27343760         -14.64843760
     1.95312480         -30.27343760         -14.64843760
     1.95312480         -30.27343760         -14.64843760
     1.95312480         -30.27343760         -14.64843760
     1.95312480         -29.29687520         -14.64843760
     1.95312480         -29.29687520         -14.64843760
     1.95312480         -29.29687520         -14.64843760
     1.95312480         -30.27343760         -14.64843760
     1.95312480         -30.27343760         -14.64843760
     2.92968720         -29.29687520         -14.64843760
     2.92968720         -29.29687520         -14.64843760
     3.90624960         -29.29687520         -14.64843760
     3.90624960         -29.29687520         -14.64843760
     3.90624960         -29.29687520         -14.64843760
     4.88281280         -29.29687520         -14.64843760
     4.88281280         -29.29687520         -14.64843760
     4.88281280         -29.29687520         -14.64843760
     4.88281280         -30.27343760         -14.64843760
     4.88281280         -30.27343760         -14.64843760
     4.88281280         -30.27343760         -14.64843760
     4.88281280         -30.27343760         -14.64843760
     4.88281280         -30.27343760         -15.62500000
     4.88281280         -30.27343760         -15.62500000
     4.88281280         -30.27343760         -15.62500000
     3.90624960         -31.25000000         -15.62500000
     3.90624960         -31.25000000         -15.62500000
     3.90624960         -31.25000000         -14.64843760
     3.90624960         -31.25000000         -15.62500000
     2.92968720         -31.25000000         -15.62500000
     2.92968720         -31.25000000         -15.62500000
     2.92968720         -31.25000000         -15.62500000
     2.92968720         -30.27343760         -15.62500000
     2.92968720         -30.27343760         -15.62500000
     2.92968720         -30.27343760         -15.62500000
     2.92968720         -30.27343760         -15.62500000
     2.92968720         -30.27343760         -15.62500000
     2.92968720         -29.29687520         -15.62500000
     2.92968720         -30.27343760         -15.62500000
     2.92968720         -30.27343760         -14.64843760
     2.92968720         -30.27343760         -14.64843760
     1.95312480         -30.27343760         -14.64843760
     1.95312480         -30.27343760         -14.64843760
     1.95312480         -30.27343760         -14.64843760
     1.95312480         -31.25000000         -14.64843760
     1.95312480         -31.25000000         -14.64843760
     1.95312480         -31.25000000         -14.64843760
     1.95312480         -31.25000000         -14.64843760
     1.95312480         -31.25000000         -14.64843760
     1.95312480         -31.25000000         -14.64843760
     1.95312480         -31.25000000         -14.64843760
     1.95312480         -31.25000000         -14.64843760
     2.92968720         -31.25000000         -13.67187520
     2.92968720         -31.25000000         -14.64843760
     2.92968720         -31.25000000         -13.67187520
     2.92968720         -31.25000000         -13.67187520
     2.92968720         -31.25000000         -13.67187520
     3.90624960         -31.25000000         -13.67187520
     3.90624960         -30.27343760         -13.67187520
     3.90624960         -30.27343760         -13.67187520
     3.90624960         -30.27343760         -13.67187520
     3.90624960         -30.27343760         -14.64843760
     3.90624960         -30.27343760         -14.64843760
     3.90624960         -30.27343760         -14.64843760
     3.90624960         -30.27343760         -14.64843760
     3.90624960         -30.27343760         -14.64843760
     3.90624960         -30.27343760         -14.64843760
     3.90624960         -30.27343760         -14.64843760
     3.90624960         -30.27343760         -14.64843760
     3.90624960         -30.27343760         -14.64843760
     3.90624960         -30.27343760         -14.64843760
     3.90624960         -30.27343760         -15.62500000
     3.90624960         -30.27343760         -14.64843760
     2.92968720         -30.27343760         -15.62500000
     2.92968720         -30.27343760         -15.62500000
     2.92968720         -30.27343760         -15.62500000
     2.92968720         -30.27343760         -15.62500000
     2.92968720         -30.27343760         -16.60156240
     2.92968720         -30.27343760         -16.60156240
     2.92968720         -30.27343760         -16.60156240
     2.92968720         -30.27343760         -16.60156240
     2.92968720         -30.27343760         -16.60156240
     2.92968720         -30.27343760         -16.60156240
     1.95312480         -30.27343760         -16.60156240
     1.95312480         -30.27343760         -15.62500000
     2.92968720         -30.27343760         -15.62500000
     2.92968720         -30.27343760         -14.64843760
     2.92968720         -30.27343760         -14.64843760
     2.92968720         -30.27343760         -14.64843760
     2.92968720         -30.27343760         -14.64843760
     2.92968720         -30.27343760         -14.64843760
     2.92968720         -30.27343760         -13.67187520
     2.92968720         -30.27343760         -13.67187520
     2.92968720         -30.27343760         -13.67187520
     2.92968720         -30.27343760         -13.67187520
     2.92968720         -30.27343760         -13.67187520
     2.92968720         -30.27343760         -13.67187520
     2.92968720         -30.27343760         -13.67187520
     2.92968720         -30.27343760         -13.67187520
     3.90624960         -30.27343760         -13.67187520
     3.90624960         -30.27343760         -13.67187520
     3.90624960         -30.27343760         -14.64843760
     3.90624960         -30.27343760         -14.64843760
     3.90624960         -30.27343760         -14.64843760
     4.88281280         -30.27343760         -14.64843760
     3.90624960         -30.27343760         -15.62500000
     3.90624960         -30.27343760         -15.62500000
     4.88281280         -30.27343760         -15.62500000
     4.88281280         -30.27343760         -16.60156240
     4.88281280         -30.27343760         -15.62500000
     4.88281280         -30.27343760         -15.62500000
     4.88281280         -30.27343760         -15.62500000
     4.88281280         -30.27343760         -15.62500000
     4.88281280         -30.27343760         -15.62500000
     4.88281280         -30.27343760         -15.62500000
     4.88281280         -30.27343760         -14.64843760
     4.88281280         -30.27343760         -14.64843760
     4.88281280         -30.27343760         -14.64843760
     4.88281280         -30.27343760         -14.64843760
     4.88281280         -30.27343760         -14.64843760
     4.88281280         -30.27343760         -14.64843760
     4.88281280         -31.25000000         -13.67187520
     4.88281280         -31.25000000         -13.67187520
     3.90624960         -31.25000000         -13.67187520
     3.90624960         -31.25000000         -13.67187520
     3.90624960         -31.25000000         -13.67187520
     3.90624960         -31.25000000         -14.64843760
     2.92968720         -31.25000000         -14.64843760
     2.92968720         -31.25000000         -14.64843760
     2.92968720         -31.25000000         -15.62500000
     2.92968720         -31.25000000         -15.62500000
     2.92968720         -31.25000000         -15.62500000
     2.92968720         -31.25000000         -16.60156240
     2.92968720         -31.25000000         -16.60156240
     2.92968720         -31.25000000         -16.60156240
     2.92968720         -31.25000000         -16.60156240
     2.92968720         -31.25000000         -16.60156240
     2.92968720         -31.25000000         -16.60156240
     2.92968720         -31.25000000         -16.60156240
     2.92968720         -31.25000000         -16.60156240
     2.92968720         -31.25000000         -15.62500000
     3.90624960         -30.27343760         -15.62500000
     3.90624960         -30.27343760         -15.62500000
     3.90624960         -30.27343760         -16.60156240
     4.88281280         -30.27343760         -16.60156240
     4.88281280         -30.27343760         -16.60156240
     4.88281280         -30.27343760         -16.60156240
     4.88281280         -30.27343760         -16.60156240
     4.88281280         -30.27343760         -16.60156240
     4.88281280         -30.27343760         -16.60156240
     4.88281280         -30.27343760         -15.62500000
     4.88281280         -30.27343760         -15.62500000
     4.88281280         -30.27343760         -14.64843760
     4.88281280         -31.25000000         -14.64843760
     4.88281280         -31.25000000         -14.64843760
     3.90624960         -31.25000000         -14.64843760
     3.90624960         -31.25000000         -13.67187520
     3.90624960         -31.25000000         -13.67187520
     3.90624960         -31.25000000         -13.67187520
     3.90624960         -31.25000000         -13.67187520
     2.92968720         -31.25000000         -13.67187520
     2.92968720         -31.25000000         -13.67187520
     3.90624960         -30.27343760         -13.67187520
     3.90624960         -31.25000000         -14.64843760
     3.90624960         -30.27343760         -14.64843760
     3.90624960         -30.27343760         -15.62500000
     3.90624960         -30.27343760         -15.62500000
     3.90624960         -30.27343760         -16.60156240
     3.90624960         -30.27343760         -16.60156240
     3.90624960         -29.29687520         -16.60156240
     3.90624960         -29.29687520         -16.60156240
     4.88281280         -29.29687520         -16.60156240
     4.88281280         -29.29687520         -16.60156240
     4.88281280         -30.27343760         -16.60156240
     4.88281280         -30.27343760         -15.62500000
     3.90624960         -30.27343760         -15.62500000
     3.90624960         -30.27343760         -15.62500000
     3.90624960         -30.27343760         -14.64843760
     3.90624960         -30.27343760         -14.64843760
     2.92968720         -30.27343760         -14.64843760
     2.92968720         -31.25000000         -13.67187520
     2.92968720         -31.25000000         -13.67187520
     2.92968720         -31.25000000         -13.67187520
     1.95312480         -31.25000000         -13.67187520
     1.95312480         -31.25000000         -13.67187520
     1.95312480         -31.25000000         -13.67187520
     0.97656240         -31.25000000         -14.64843760
     0.97656240         -31.25000000         -14.64843760
     0.00000000         -30.27343760         -14.64843760
     0.00000000         -30.27343760         -15.62500000
    -0.97656240         -30.27343760         -15.62500000
    -0.97656240         -30.27343760         -16.60156240
    -1.95312480         -30.27343760         -16.60156240
    -1.95312480         -30.27343760         -16.60156240
    -2.92968720         -30.27343760         -16.60156240
    -3.90624960         -30.27343760         -16.60156240
    -3.90624960         -30.27343760         -16.60156240
    -4.88281280         -29.29687520         -16.60156240
    -4.88281280         -29.29687520         -16.60156240
    -4.88281280         -29.29687520         -15.62500000
    -4.88281280         -29.29687520         -14.64843760
    -4.88281280         -29.29687520         -14.64843760
    -4.88281280         -28.32031280         -13.67187520
    -4.88281280         -28.32031280         -13.67187520
    -3.90624960         -28.32031280         -12.69531280
    -3.90624960         -28.32031280         -11.71875040
    -3.90624960         -28.32031280         -10.74218720
    -2.92968720         -28.32031280          -9.76562480
    -2.92968720         -28.32031280          -8.78906240
    -1.95312480         -28.32031280          -8.78906240
    -1.95312480         -28.32031280          -7.81250000
    -0.97656240         -29.29687520          -6.83593760
     0.00000000         -29.29687520          -5.85937520
     0.97656240         -29.29687520          -4.88281280
     1.95312480         -29.29687520          -4.88281280
     1.95312480         -30.27343760          -4.88281280
     3.90624960         -30.27343760          -4.88281280
     4.88281280         -30.27343760          -4.88281280
     5.85937520         -31.25000000          -5.85937520
     6.83593760         -31.25000000          -6.83593760
     7.81250000         -31.25000000          -6.83593760
     8.78906240         -31.25000000          -7.81250000
    10.74218720         -31.25000000          -8.78906240
    11.71875040         -32.22656240         -10.74218720
    11.71875040         -32.22656240         -11.71875040
    12.69531280         -32.22656240         -12.69531280
    12.69531280         -32.22656240         -13.67187520
    13.67187520         -32.22656240         -14.64843760
    13.67187520         -32.22656240         -15.62500000
    13.67187520         -32.22656240         -16.60156240
    12.69531280         -32.22656240         -17.57812480
    12.69531280         -32.22656240         -17.57812480
    11.71875040         -32.22656240         -18.55468720
    10.74218720         -32.22656240         -18.55468720
     9.76562480         -32.22656240         -19.53124960
     8.78906240         -32.22656240         -19.53124960
     8.78906240         -32.22656240         -20.50781280
     6.83593760         -31.25000000         -20.50781280
     6.83593760         -31.25000000         -20.50781280
     5.85937520         -31.25000000         -21.48437520
     4.88281280         -31.25000000         -21.48437520
     3.90624960         -31.25000000         -21.48437520
     3.90624960         -31.25000000         -20.50781280
     2.92968720         -31.25000000         -20.50781280
     2.92968720         -31.25000000         -20.50781280
     2.92968720         -31.25000000         -20.50781280
     2.92968720         -31.25000000         -19.53124960
     2.92968720         -31.25000000         -18.55468720
     2.92968720         -31.25000000         -18.55468720
     2.92968720         -30.27343760         -18.55468720
     2.92968720         -31.25000000         -18.55468720
     3.90624960         -30.27343760         -17.57812480
     3.90624960         -31.25000000         -16.60156240
     3.90624960         -31.25000000         -16.60156240
     4.88281280         -31.25000000         -16.60156240
     4.88281280         -31.25000000         -16.60156240
     4.88281280         -31.25000000         -15.62500000
     4.88281280         -31.25000000         -15.62500000
     4.88281280         -31.25000000         -15.62500000
     4.88281280         -31.25000000         -15.62500000
     4.88281280         -31.25000000         -15.62500000
     4.88281280         -31.25000000         -15.62500000
     4.88281280         -30.27343760         -16.60156240
     3.90624960         -30.27343760         -16.60156240
     3.90624960         -30.27343760         -16.60156240
     3.90624960         -30.27343760         -17.57812480
     3.90624960         -30.27343760         -17.57812480
     2.92968720         -30.27343760         -17.57812480
     2.92968720         -29.29687520         -18.55468720
     2.92968720         -29.29687520         -18.55468720
     1.95312480         -29.29687520         -18.55468720
     1.95312480         -29.29687520         -18.55468720
     0.97656240         -29.29687520         -19.53124960
     0.97656240         -29.29687520         -19.53124960
     0.00000000         -29.29687520         -19.53124960
     0.00000000         -29.29687520         -19.53124960
     0.00000000         -29.29687520         -18.55468720
    -0.97656240         -29.29687520         -18.55468720
    -0.97656240         -29.29687520         -17.57812480
    -1.95312480         -29.29687520         -16.60156240
    -1.95312480         -29.29687520         -15.62500000
    -1.95312480         -29.29687520         -13.67187520
    -0.97656240         -28.32031280         -12.69531280
    -0.97656240         -28.32031280         -11.71875040
    -0.97656240         -28.32031280          -9.76562480
    -0.97656240         -28.32031280          -8.78906240
    -0.97656240         -28.32031280          -6.83593760
    -0.97656240         -28.32031280          -5.85937520
    -0.97656240         -28.32031280          -5.85937520
    -0.97656240         -28.32031280          -4.88281280
    -0.97656240         -28.32031280          -5.85937520
    -0.97656240         -28.32031280          -5.85937520
    -0.97656240         -28.32031280          -5.85937520
     0.00000000         -28.32031280          -6.83593760
     0.00000000         -28.32031280          -7.81250000
     0.00000000         -29.29687520          -8.78906240
     0.97656240         -29.29687520          -9.76562480
     0.97656240         -29.29687520         -10.74218720
     0.97656240         -30.27343760         -11.71875040
     1.95312480         -30.27343760         -12.69531280
     2.92968720         -30.27343760         -13.67187520
     2.92968720         -30.27343760         -14.64843760
     3.90624960         -30.27343760         -14.64843760
     4.88281280         -31.25000000         -15.62500000
     5.85937520         -31.25000000         -16.60156240
     6.83593760         -31.25000000         -16.60156240
     6.83593760         -31.25000000         -17.57812480
     6.83593760         -31.25000000         -18.55468720
     7.81250000         -31.25000000         -19.53124960
     7.81250000         -31.25000000         -20.50781280
     7.81250000         -31.25000000         -20.50781280
     8.78906240         -30.27343760         -21.48437520
     8.78906240         -30.27343760         -22.46093760
     8.78906240         -30.27343760         -22.46093760
     8.78906240         -30.27343760         -22.46093760
     8.78906240         -30.27343760         -22.46093760
     8.78906240         -30.27343760         -21.48437520
     8.78906240         -30.27343760         -21.48437520
     7.81250000         -30.27343760         -20.50781280
     7.81250000         -30.27343760         -18.55468720
     6.83593760         -30.27343760         -17.57812480
     5.85937520         -30.27343760         -16.60156240
     4.88281280         -29.29687520         -14.64843760
     3.90624960         -30.27343760         -13.67187520
     2.92968720         -30.27343760         -12.69531280
     1.95312480         -30.27343760         -12.69531280
     0.97656240         -30.27343760         -11.71875040
