SERVICIO GEOLOGICO COLOMBIANO- RED NACIONAL DE ACELEROGRAFOS DE COLOMBIA
SISMO DE SALGAR (ANTIOQUIA) 1994/02/07 12:50:15 ML=4.7
LATITUD DEL EVENTO(GRADOS): 5.968
LONGITUD DEL EVENTO(GRADOS): -75.992
PROFUNDIDAD DEL EVENTO (Km): 0
CODIGO DE LA ESTACION: CANSE
Estacion:ANSERMA Geol:ROCA Topo:ONDULADA
LATITUD DE LA ESTACION (GRADOS): 5.264
LONGITUD DE LA ESTACION (GRADOS): -75.815
DISTANCIA EPICENTRAL: 80.5759849149 km
DISTANCIA HIPOCENTRAL: 80.5759849149 km
INTERVALO DE MUESTREO (SEGUNDOS): 0.005
NUMERO DE DATOS: 4608
DURACION (SEGUNDOS): 23.04
UNIDADES: cm/s^2
TIPO DE EQUIPO: SSA
ESCALA MAXIMA (G): 2
CORRECCION DE LINEA BASE: LINEA BASE NO REMOVIDA
TIPO DE DATOS: NO CORREGIDO
         EW                  VER                  NS
[...]
   -13.67187520          -3.90624960          -9.76562480
   -12.69531280          -3.90624960          -9.76562480
   -11.71875040          -3.90624960         -10.74218720
    -9.76562480          -4.88281280         -12.69531280
    -7.81250000          -4.88281280         -14.64843760
    -5.85937520          -4.88281280         -17.57812480
    -4.88281280          -4.88281280         -20.50781280
    -2.92968720          -4.88281280         -22.46093760
    -1.95312480          -4.88281280         -24.41406240
    -0.97656240          -4.88281280         -27.34375040
    -0.97656240          -4.88281280         -28.32031280
     0.00000000          -4.88281280         -30.27343760
    -0.97656240          -3.90624960         -30.27343760
    -1.95312480          -4.88281280         -31.25000000
    -1.95312480          -4.88281280         -31.25000000
    -3.90624960          -3.90624960         -31.25000000
    -4.88281280          -3.90624960         -31.25000000
    -6.83593760          -3.90624960         -31.25000000
    -7.81250000          -3.90624960         -32.22656240
    -8.78906240          -4.88281280         -32.22656240
    -9.76562480          -4.88281280         -32.22656240
   -10.74218720          -4.88281280         -33.20312480
   -10.74218720          -4.88281280         -33.20312480
   -10.74218720          -4.88281280         -33.20312480
    -9.76562480          -4.88281280         -32.22656240
    -8.78906240          -4.88281280         -31.25000000
    -7.81250000          -4.88281280         -29.29687520
    -6.83593760          -4.88281280         -27.34375040
    -5.85937520          -3.90624960         -25.39062480
    -4.88281280          -3.90624960         -22.46093760
    -4.88281280          -2.92968720         -20.50781280
    -5.85937520          -2.92968720         -18.55468720
    -6.83593760          -2.92968720         -17.57812480
    -8.78906240          -3.90624960         -16.60156240
   -10.74218720          -3.90624960         -16.60156240
   -12.69531280          -3.90624960         -16.60156240
   -13.67187520          -4.88281280         -17.57812480
   -14.64843760          -4.88281280         -19.53124960
   -14.64843760          -5.85937520         -20.50781280
   -13.67187520          -5.85937520         -21.48437520
   -11.71875040          -5.85937520         -22.46093760
    -9.76562480          -5.85937520         -22.46093760
    -6.83593760          -5.85937520         -22.46093760
    -3.90624960          -5.85937520         -22.46093760
    -1.95312480          -4.88281280         -21.48437520
    -0.97656240          -3.90624960         -21.48437520
     0.00000000          -3.90624960         -21.48437520
    -0.97656240          -3.90624960         -22.46093760
    -2.92968720          -3.90624960         -23.43750000
    -5.85937520          -3.90624960         -25.39062480
    -7.81250000          -3.90624960         -27.34375040
    -9.76562480          -3.90624960         -29.29687520
   -11.71875040          -3.90624960         -31.25000000
   -11.71875040          -3.90624960         -34.17968720
   -10.74218720          -4.88281280         -36.13281280
    -9.76562480          -4.88281280         -37.10937520
    -6.83593760          -4.88281280         -38.08593760
    -3.90624960          -4.88281280         -38.08593760
    -0.97656240          -4.88281280         -38.08593760
     0.97656240          -3.90624960         -36.13281280
     1.95312480          -3.90624960         -34.17968720
     0.97656240          -2.92968720         -31.25000000
     0.00000000          -3.90624960         -27.34375040
    -2.92968720          -3.90624960         -24.41406240
    -5.85937520          -3.90624960         -20.50781280
    -9.76562480          -3.90624960         -17.57812480
   -12.69531280          -3.90624960         -13.67187520
   -14.64843760          -3.90624960         -10.74218720
   -16.60156240          -3.90624960          -8.78906240
   -16.60156240          -3.90624960          -6.83593760
   -16.60156240          -3.90624960          -6.83593760
   -15.62500000          -3.90624960          -6.83593760
   -13.67187520          -3.90624960          -8.78906240
   -11.71875040          -3.90624960         -10.74218720
    -9.76562480          -3.90624960         -13.67187520
    -7.81250000          -3.90624960         -17.57812480
    -6.83593760          -3.90624960         -21.48437520
    -4.88281280          -3.90624960         -26.36718720
    -4.88281280          -4.88281280         -31.25000000
    -4.88281280          -4.88281280         -35.15624960
    -4.88281280          -5.85937520         -39.06250000
    -4.88281280          -5.85937520         -41.99218720
    -5.85937520          -6.83593760         -42.96875040
    -5.85937520          -6.83593760         -43.94531280
    -5.85937520          -5.85937520         -41.99218720
    -5.85937520          -5.85937520         -40.03906240
    -5.85937520          -4.88281280         -37.10937520
    -4.88281280          -4.88281280         -33.20312480
    -4.88281280          -3.90624960         -28.32031280
    -3.90624960          -3.90624960         -24.41406240
    -3.90624960          -3.90624960         -20.50781280
    -3.90624960          -3.90624960         -17.57812480
    -3.90624960          -3.90624960         -15.62500000
    -5.85937520          -3.90624960         -14.64843760
    -6.83593760          -3.90624960         -15.62500000
    -8.78906240          -3.90624960         -16.60156240
    -9.76562480          -3.90624960         -18.55468720
   -10.74218720          -3.90624960         -21.48437520
   -10.74218720          -3.90624960         -24.41406240
   -10.74218720          -3.90624960         -26.36718720
    -9.76562480          -3.90624960         -28.32031280
    -7.81250000          -4.88281280         -30.27343760
    -5.85937520          -4.88281280         -31.25000000
    -3.90624960          -4.88281280         -31.25000000
    -1.95312480          -3.90624960         -31.25000000
    -0.97656240          -3.90624960         -30.27343760
    -0.97656240          -3.90624960         -29.29687520
    -1.95312480          -3.90624960         -28.32031280
    -3.90624960          -3.90624960         -27.34375040
    -5.85937520          -3.90624960         -25.39062480
    -8.78906240          -4.88281280         -24.41406240
   -10.74218720          -4.88281280         -21.48437520
   -11.71875040          -4.88281280         -20.50781280
   -12.69531280          -4.88281280         -17.57812480
   -13.67187520          -4.88281280         -15.62500000
   -13.67187520          -4.88281280         -13.67187520
   -12.69531280          -4.88281280         -12.69531280
   -11.71875040          -4.88281280         -11.71875040
   -11.71875040          -4.88281280         -11.71875040
   -10.74218720          -4.88281280         -12.69531280
   -10.74218720          -4.88281280         -13.67187520
    -9.76562480          -5.85937520         -16.60156240
    -9.76562480          -5.85937520         -19.53124960
    -9.76562480          -4.88281280         -22.46093760
    -9.76562480          -4.88281280         -26.36718720
    -9.76562480          -4.88281280         -29.29687520
    -9.76562480          -4.88281280         -32.22656240
    -8.78906240          -4.88281280         -34.17968720
    -7.81250000          -4.88281280         -36.13281280
    -7.81250000          -4.88281280         -37.10937520
    -6.83593760          -4.88281280         -38.08593760
    -6.83593760          -4.88281280         -38.08593760
    -6.83593760          -4.88281280         -37.10937520
    -6.83593760          -4.88281280         -37.10937520
    -6.83593760          -3.90624960         -35.15624960
    -6.83593760          -3.90624960         -34.17968720
    -5.85937520          -3.90624960         -33.20312480
    -5.85937520          -2.92968720         -31.25000000
    -4.88281280          -3.90624960         -29.29687520
    -3.90624960          -3.90624960         -27.34375040
    -2.92968720          -3.90624960         -25.39062480
    -2.92968720          -3.90624960         -22.46093760
    -2.92968720          -3.90624960         -19.53124960
    -2.92968720          -3.90624960         -17.57812480
    -3.90624960          -3.90624960         -14.64843760
    -5.85937520          -3.90624960         -12.69531280
    -6.83593760          -3.90624960         -10.74218720
    -8.78906240          -3.90624960          -9.76562480
   -10.74218720          -3.90624960          -9.76562480
   -11.71875040          -3.90624960         -10.74218720
   -12.69531280          -3.90624960         -12.69531280
   -11.71875040          -3.90624960         -14.64843760
   -10.74218720          -3.90624960         -17.57812480
    -8.78906240          -4.88281280         -21.48437520
    -6.83593760          -3.90624960         -24.41406240
    -4.88281280          -4.88281280         -28.32031280
    -2.92968720          -4.88281280         -31.25000000
    -2.92968720          -5.85937520         -34.17968720
    -1.95312480          -5.85937520         -36.13281280
    -2.92968720          -5.85937520         -37.10937520
    -3.90624960          -4.88281280         -38.08593760
    -3.90624960          -4.88281280         -37.10937520
    -4.88281280          -3.90624960         -36.13281280
    -5.85937520          -3.90624960         -35.15624960
    -6.83593760          -3.90624960         -33.20312480
    -6.83593760          -3.90624960         -31.25000000
    -7.81250000          -3.90624960         -29.29687520
    -7.81250000          -4.88281280         -27.34375040
    -8.78906240          -4.88281280         -25.39062480
    -9.76562480          -4.88281280         -23.43750000
   -10.74218720          -4.88281280         -22.46093760
   -10.74218720          -4.88281280         -21.48437520
   -11.71875040          -4.88281280         -20.50781280
   -11.71875040          -4.88281280         -19.53124960
   -10.74218720          -4.88281280         -18.55468720
   -10.74218720          -4.88281280         -17.57812480
    -8.78906240          -4.88281280         -15.62500000
    -7.81250000          -4.88281280         -14.64843760
    -6.83593760          -4.88281280         -14.64843760
    -6.83593760          -3.90624960         -15.62500000
    -6.83593760          -3.90624960         -16.60156240
    -6.83593760          -3.90624960         -18.55468720
    -7.81250000          -3.90624960         -20.50781280
    -8.78906240          -4.88281280         -23.43750000
    -9.76562480          -3.90624960         -25.39062480
   -10.74218720          -3.90624960         -28.32031280
   -10.74218720          -3.90624960         -31.25000000
    -9.76562480          -3.90624960         -33.20312480
    -8.78906240          -3.90624960         -35.15624960
    -6.83593760          -3.90624960         -36.13281280
    -4.88281280          -4.88281280         -37.10937520
    -1.95312480          -3.90624960         -37.10937520
     0.00000000          -3.90624960         -37.10937520
     0.97656240          -3.90624960         -37.10937520
     0.97656240          -2.92968720         -35.15624960
     0.97656240          -2.92968720         -34.17968720
    -0.97656240          -2.92968720         -32.22656240
    -2.92968720          -2.92968720         -29.29687520
    -4.88281280          -3.90624960         -26.36718720
    -7.81250000          -3.90624960         -22.46093760
    -9.76562480          -3.90624960         -19.53124960
   -10.74218720          -3.90624960         -15.62500000
   -12.69531280          -3.90624960         -12.69531280
   -13.67187520          -3.90624960          -9.76562480
   -13.67187520          -3.90624960          -7.81250000
   -13.67187520          -4.88281280          -6.83593760
   -13.67187520          -4.88281280          -6.83593760
   -13.67187520          -4.88281280          -7.81250000
   -11.71875040          -3.90624960          -9.76562480
   -10.74218720          -3.90624960         -12.69531280
    -9.76562480          -3.90624960         -16.60156240
    -7.81250000          -3.90624960         -20.50781280
    -6.83593760          -4.88281280         -24.41406240
    -5.85937520          -4.88281280         -28.32031280
    -4.88281280          -4.88281280         -32.22656240
    -3.90624960          -4.88281280         -36.13281280
    -2.92968720          -4.88281280         -39.06250000
    -2.92968720          -4.88281280         -41.99218720
    -2.92968720          -4.88281280         -43.94531280
    -2.92968720          -4.88281280         -44.92187520
    -3.90624960          -4.88281280         -44.92187520
    -4.88281280          -4.88281280         -43.94531280
    -5.85937520          -4.88281280         -41.01562480
    -6.83593760          -4.88281280         -38.08593760
    -6.83593760          -5.85937520         -35.15624960
    -7.81250000          -5.85937520         -30.27343760
    -8.78906240          -5.85937520         -25.39062480
    -8.78906240          -4.88281280         -20.50781280
    -9.76562480          -4.88281280         -14.64843760
    -9.76562480          -4.88281280         -10.74218720
   -11.71875040          -3.90624960          -6.83593760
   -12.69531280          -3.90624960          -4.88281280
   -13.67187520          -2.92968720          -3.90624960
   -14.64843760          -2.92968720          -3.90624960
   -14.64843760          -2.92968720          -5.85937520
   -14.64843760          -2.92968720          -8.78906240
   -13.67187520          -3.90624960         -12.69531280
   -12.69531280          -3.90624960         -17.57812480
   -10.74218720          -3.90624960         -21.48437520
    -7.81250000          -4.88281280         -26.36718720
    -5.85937520          -4.88281280         -30.27343760
    -1.95312480          -4.88281280         -34.17968720
     0.00000000          -5.85937520         -36.13281280
     1.95312480          -4.88281280         -39.06250000
     2.92968720          -4.88281280         -40.03906240
     2.92968720          -4.88281280         -40.03906240
     1.95312480          -4.88281280         -38.08593760
     0.00000000          -4.88281280         -36.13281280
    -1.95312480          -3.90624960         -32.22656240
    -3.90624960          -3.90624960         -29.29687520
    -6.83593760          -3.90624960         -25.39062480
    -8.78906240          -3.90624960         -21.48437520
   -10.74218720          -3.90624960         -17.57812480
   -11.71875040          -2.92968720         -15.62500000
   -13.67187520          -2.92968720         -13.67187520
   -13.67187520          -3.90624960         -12.69531280
   -14.64843760          -3.90624960         -12.69531280
   -14.64843760          -3.90624960         -14.64843760
   -13.67187520          -3.90624960         -16.60156240
   -12.69531280          -3.90624960         -19.53124960
   -10.74218720          -3.90624960         -22.46093760
    -8.78906240          -3.90624960         -26.36718720
    -6.83593760          -3.90624960         -29.29687520
    -4.88281280          -3.90624960         -33.20312480
    -3.90624960          -4.88281280         -36.13281280
    -1.95312480          -4.88281280         -38.08593760
    -0.97656240          -4.88281280         -39.06250000
    -0.97656240          -4.88281280         -39.06250000
    -1.95312480          -5.85937520         -39.06250000
    -2.92968720          -4.88281280         -37.10937520
    -4.88281280          -4.88281280         -35.15624960
    -6.83593760          -5.85937520         -31.25000000
    -8.78906240          -4.88281280         -28.32031280
   -10.74218720          -5.85937520         -24.41406240
   -11.71875040          -4.88281280         -20.50781280
   -11.71875040          -4.88281280         -17.57812480
   -11.71875040          -4.88281280         -14.64843760
   -10.74218720          -3.90624960         -12.69531280
    -9.76562480          -3.90624960         -10.74218720
    -9.76562480          -2.92968720         -10.74218720
    -7.81250000          -2.92968720         -12.69531280
    -6.83593760          -3.90624960         -14.64843760
    -5.85937520          -3.90624960         -17.57812480
    -5.85937520          -3.90624960         -20.50781280
    -4.88281280          -3.90624960         -24.41406240
    -4.88281280          -3.90624960         -27.34375040
    -4.88281280          -4.88281280         -29.29687520
    -4.88281280          -4.88281280         -32.22656240
    -4.88281280          -4.88281280         -33.20312480
    -3.90624960          -4.88281280         -33.20312480
    -3.90624960          -4.88281280         -33.20312480
    -3.90624960          -4.88281280         -31.25000000
    -3.90624960          -4.88281280         -30.27343760
    -4.88281280          -4.88281280         -28.32031280
    -5.85937520          -4.88281280         -26.36718720
    -7.81250000          -4.88281280         -25.39062480
    -8.78906240          -3.90624960         -24.41406240
    -9.76562480          -3.90624960         -23.43750000
   -10.74218720          -3.90624960         -22.46093760
   -11.71875040          -3.90624960         -23.43750000
   -10.74218720          -3.90624960         -23.43750000
   -10.74218720          -3.90624960         -25.39062480
    -8.78906240          -3.90624960         -25.39062480
    -6.83593760          -4.88281280         -26.36718720
    -5.85937520          -4.88281280         -26.36718720
    -3.90624960          -4.88281280         -26.36718720
    -2.92968720          -4.88281280         -25.39062480
    -1.95312480          -4.88281280         -24.41406240
    -2.92968720          -3.90624960         -22.46093760
    -3.90624960          -3.90624960         -21.48437520
    -5.85937520          -3.90624960         -19.53124960
    -8.78906240          -3.90624960         -17.57812480
   -10.74218720          -3.90624960         -16.60156240
   -13.67187520          -3.90624960         -16.60156240
   -14.64843760          -3.90624960         -16.60156240
   -15.62500000          -3.90624960         -17.57812480
   -15.62500000          -3.90624960         -18.55468720
   -14.64843760          -3.90624960         -20.50781280
   -12.69531280          -4.88281280         -22.46093760
    -9.76562480          -4.88281280         -25.39062480
    -5.85937520          -4.88281280         -27.34375040
    -3.90624960          -5.85937520         -30.27343760
    -0.97656240          -4.88281280         -32.22656240
     0.00000000          -5.85937520         -34.17968720
     0.00000000          -4.88281280         -34.17968720
    -0.97656240          -4.88281280         -35.15624960
    -2.92968720          -4.88281280         -34.17968720
    -5.85937520          -4.88281280         -33.20312480
    -7.81250000          -3.90624960         -30.27343760
   -10.74218720          -3.90624960         -27.34375040
   -11.71875040          -3.90624960         -24.41406240
   -12.69531280          -3.90624960         -21.48437520
