SERVICIO GEOLOGICO COLOMBIANO- RED NACIONAL DE ACELEROGRAFOS DE COLOMBIA
SISMO DE YALI (ANTIOQUIA) 1993/11/18 14:55:13 ML=4.7
LATITUD DEL EVENTO(GRADOS): 6.73
LONGITUD DEL EVENTO(GRADOS): -74.77
PROFUNDIDAD DEL EVENTO (Km): 17
CODIGO DE LA ESTACION: CPENS
Estacion:PENSILVANIA Geol:ROCA Topo:ONDULADA
LATITUD DE LA ESTACION (GRADOS): 5.393
LONGITUD DE LA ESTACION (GRADOS): -75.161
DISTANCIA EPICENTRAL: 154.623039842 km
DISTANCIA HIPOCENTRAL: 155.554763508 km
INTERVALO DE MUESTREO (SEGUNDOS): 0.005
NUMERO DE DATOS: 3584
DURACION (SEGUNDOS): 17.92
UNIDADES: cm/s^2
TIPO DE EQUIPO: SSA
ESCALA MAXIMA (G): 2
CORRECCION DE LINEA BASE: LINEA BASE NO REMOVIDA
TIPO DE DATOS: NO CORREGIDO
         EW                  VER                  NS
[...]
     9.76562480         -10.74218720           5.85937520
     9.76562480         -10.74218720           5.85937520
     9.76562480         -10.74218720           5.85937520
     9.76562480         -10.74218720           5.85937520
    10.74218720         -10.74218720           5.85937520
     9.76562480          -9.76562480           6.83593760
     9.76562480          -9.76562480           6.83593760
     9.76562480          -9.76562480           6.83593760
     9.76562480          -9.76562480           6.83593760
     9.76562480          -9.76562480           6.83593760
     9.76562480          -9.76562480           5.85937520
     9.76562480          -9.76562480           5.85937520
    10.74218720          -9.76562480           4.88281280
    10.74218720          -9.76562480           3.90624960
    10.74218720          -9.76562480           2.92968720
    10.74218720          -9.76562480           1.95312480
    11.71875040          -9.76562480           0.97656240
    11.71875040          -9.76562480           0.97656240
    11.71875040         -10.74218720           0.00000000
    12.69531280          -9.76562480          -0.97656240
    12.69531280         -10.74218720          -0.97656240
    12.69531280         -10.74218720          -0.97656240
    12.69531280         -10.74218720          -0.97656240
    13.67187520         -10.74218720          -1.95312480
    13.67187520         -10.74218720          -0.97656240
    13.67187520         -10.74218720          -0.97656240
    12.69531280         -10.74218720          -0.97656240
    12.69531280         -10.74218720          -0.97656240
    12.69531280         -10.74218720           0.00000000
    12.69531280         -10.74218720           0.00000000
    11.71875040         -10.74218720           0.00000000
    11.71875040         -10.74218720           0.00000000
    11.71875040         -10.74218720           0.00000000
    11.71875040         -10.74218720           0.00000000
    10.74218720         -10.74218720           0.97656240
     9.76562480         -10.74218720           0.97656240
     9.76562480         -11.71875040           1.95312480
     8.78906240         -11.71875040           2.92968720
     7.81250000         -11.71875040           2.92968720
     8.78906240         -11.71875040           2.92968720
     8.78906240         -11.71875040           3.90624960
     8.78906240         -11.71875040           4.88281280
     9.76562480         -11.71875040           4.88281280
     9.76562480         -10.74218720           4.88281280
     9.76562480         -10.74218720           4.88281280
    11.71875040         -10.74218720           3.90624960
    11.71875040         -10.74218720           3.90624960
    11.71875040         -10.74218720           3.90624960
    11.71875040         -10.74218720           3.90624960
    11.71875040         -10.74218720           4.88281280
    11.71875040         -10.74218720           3.90624960
    11.71875040         -10.74218720           4.88281280
    10.74218720         -10.74218720           4.88281280
    10.74218720         -10.74218720           4.88281280
    10.74218720          -9.76562480           5.85937520
    10.74218720          -9.76562480           5.85937520
     9.76562480          -9.76562480           5.85937520
    10.74218720          -9.76562480           5.85937520
     9.76562480          -9.76562480           5.85937520
    10.74218720          -8.78906240           4.88281280
    10.74218720          -8.78906240           4.88281280
    10.74218720          -8.78906240           4.88281280
     9.76562480          -8.78906240           5.85937520
    10.74218720          -8.78906240           4.88281280
    10.74218720          -8.78906240           5.85937520
    10.74218720          -9.76562480           5.85937520
    10.74218720          -8.78906240           5.85937520
    11.71875040          -9.76562480           4.88281280
    11.71875040          -9.76562480           4.88281280
    11.71875040          -9.76562480           3.90624960
    11.71875040          -9.76562480           1.95312480
    11.71875040          -9.76562480           1.95312480
    11.71875040         -10.74218720           0.00000000
    11.71875040         -10.74218720          -1.95312480
    10.74218720         -10.74218720          -2.92968720
    10.74218720         -10.74218720          -3.90624960
    10.74218720         -10.74218720          -4.88281280
    10.74218720         -10.74218720          -4.88281280
     9.76562480         -10.74218720          -4.88281280
    10.74218720         -11.71875040          -4.88281280
     9.76562480         -11.71875040          -4.88281280
     9.76562480         -11.71875040          -3.90624960
    10.74218720         -11.71875040          -3.90624960
    10.74218720         -10.74218720          -2.92968720
    10.74218720         -10.74218720          -2.92968720
    10.74218720         -10.74218720          -1.95312480
    10.74218720         -10.74218720          -1.95312480
    10.74218720         -10.74218720          -0.97656240
    10.74218720         -10.74218720           0.00000000
    10.74218720         -10.74218720           0.97656240
    10.74218720         -10.74218720           0.97656240
    10.74218720         -10.74218720           1.95312480
     9.76562480         -10.74218720           2.92968720
     9.76562480         -10.74218720           2.92968720
     9.76562480         -10.74218720           3.90624960
     9.76562480         -10.74218720           3.90624960
     9.76562480         -10.74218720           3.90624960
    10.74218720         -10.74218720           4.88281280
     9.76562480         -10.74218720           4.88281280
     9.76562480         -10.74218720           5.85937520
     9.76562480         -10.74218720           5.85937520
     9.76562480         -10.74218720           6.83593760
     9.76562480         -10.74218720           6.83593760
     9.76562480         -10.74218720           7.81250000
    10.74218720         -10.74218720           7.81250000
    10.74218720          -9.76562480           8.78906240
    10.74218720          -9.76562480           8.78906240
    10.74218720          -9.76562480           8.78906240
    10.74218720          -9.76562480           8.78906240
    10.74218720          -9.76562480           8.78906240
     9.76562480          -9.76562480           7.81250000
    10.74218720          -9.76562480           6.83593760
     9.76562480          -9.76562480           6.83593760
     9.76562480          -9.76562480           5.85937520
     9.76562480          -9.76562480           5.85937520
     9.76562480          -9.76562480           4.88281280
     9.76562480          -9.76562480           3.90624960
     9.76562480         -10.74218720           3.90624960
     9.76562480         -10.74218720           3.90624960
    10.74218720         -10.74218720           2.92968720
    11.71875040         -10.74218720           1.95312480
    11.71875040         -10.74218720           1.95312480
    11.71875040         -10.74218720           0.97656240
    12.69531280         -10.74218720           0.00000000
    13.67187520         -10.74218720           0.00000000
    13.67187520         -10.74218720          -0.97656240
    14.64843760         -10.74218720          -1.95312480
    14.64843760         -10.74218720          -1.95312480
    14.64843760         -10.74218720          -2.92968720
    14.64843760         -10.74218720          -2.92968720
    13.67187520         -10.74218720          -3.90624960
    13.67187520         -10.74218720          -3.90624960
    13.67187520         -10.74218720          -3.90624960
    13.67187520         -10.74218720          -4.88281280
    13.67187520         -10.74218720          -4.88281280
    12.69531280         -10.74218720          -4.88281280
    11.71875040         -10.74218720          -4.88281280
    11.71875040         -10.74218720          -3.90624960
    11.71875040         -10.74218720          -3.90624960
    11.71875040         -10.74218720          -3.90624960
    10.74218720         -10.74218720          -2.92968720
    10.74218720         -11.71875040          -1.95312480
    10.74218720         -11.71875040          -0.97656240
    10.74218720         -11.71875040           0.97656240
     9.76562480         -10.74218720           1.95312480
     9.76562480         -11.71875040           2.92968720
     9.76562480         -10.74218720           4.88281280
     8.78906240         -10.74218720           6.83593760
     8.78906240         -10.74218720           7.81250000
     8.78906240         -10.74218720           8.78906240
     8.78906240         -10.74218720          10.74218720
     8.78906240         -10.74218720          11.71875040
     8.78906240         -10.74218720          11.71875040
     7.81250000         -10.74218720          12.69531280
     8.78906240         -10.74218720          13.67187520
     8.78906240         -10.74218720          13.67187520
     8.78906240         -10.74218720          12.69531280
     8.78906240         -10.74218720          12.69531280
     9.76562480         -10.74218720          11.71875040
    10.74218720         -10.74218720          11.71875040
    10.74218720         -10.74218720          10.74218720
    10.74218720         -10.74218720           9.76562480
    11.71875040          -9.76562480           8.78906240
    11.71875040          -9.76562480           7.81250000
    11.71875040          -9.76562480           6.83593760
    11.71875040          -9.76562480           4.88281280
    11.71875040          -9.76562480           3.90624960
    11.71875040          -9.76562480           2.92968720
    11.71875040          -9.76562480           1.95312480
    10.74218720          -9.76562480           0.97656240
     9.76562480          -9.76562480           0.00000000
     9.76562480          -9.76562480          -0.97656240
     8.78906240          -9.76562480          -1.95312480
     8.78906240          -9.76562480          -1.95312480
     8.78906240          -9.76562480          -2.92968720
     8.78906240          -9.76562480          -2.92968720
     8.78906240          -9.76562480          -3.90624960
     8.78906240          -9.76562480          -3.90624960
     8.78906240          -9.76562480          -4.88281280
     9.76562480          -9.76562480          -4.88281280
     9.76562480          -9.76562480          -5.85937520
    10.74218720          -9.76562480          -5.85937520
    10.74218720         -10.74218720          -5.85937520
    11.71875040         -10.74218720          -5.85937520
    12.69531280         -10.74218720          -6.83593760
    12.69531280         -10.74218720          -6.83593760
    12.69531280         -10.74218720          -6.83593760
    12.69531280         -10.74218720          -6.83593760
    12.69531280         -10.74218720          -5.85937520
    12.69531280         -10.74218720          -5.85937520
    11.71875040         -11.71875040          -5.85937520
    11.71875040         -11.71875040          -4.88281280
    11.71875040         -12.69531280          -3.90624960
    10.74218720         -12.69531280          -2.92968720
    10.74218720         -12.69531280          -0.97656240
     9.76562480         -12.69531280           0.97656240
     9.76562480         -12.69531280           1.95312480
     9.76562480         -11.71875040           2.92968720
     9.76562480         -11.71875040           4.88281280
     9.76562480         -10.74218720           5.85937520
    10.74218720         -10.74218720           6.83593760
    10.74218720         -10.74218720           7.81250000
    10.74218720         -10.74218720           8.78906240
    11.71875040         -10.74218720           9.76562480
    11.71875040         -10.74218720          10.74218720
    11.71875040         -10.74218720          11.71875040
    11.71875040          -9.76562480          12.69531280
    12.69531280          -9.76562480          12.69531280
    12.69531280          -9.76562480          13.67187520
    12.69531280          -8.78906240          13.67187520
    12.69531280          -8.78906240          13.67187520
    13.67187520          -8.78906240          12.69531280
    13.67187520          -8.78906240          12.69531280
    13.67187520          -8.78906240          12.69531280
    12.69531280          -8.78906240          11.71875040
    12.69531280          -8.78906240          10.74218720
    12.69531280          -8.78906240           9.76562480
    11.71875040          -8.78906240           9.76562480
    11.71875040          -8.78906240           8.78906240
    10.74218720          -8.78906240           7.81250000
    10.74218720          -8.78906240           6.83593760
     9.76562480          -8.78906240           5.85937520
     9.76562480          -8.78906240           3.90624960
     8.78906240          -8.78906240           2.92968720
     8.78906240          -8.78906240           0.97656240
     7.81250000          -9.76562480          -0.97656240
     7.81250000          -9.76562480          -2.92968720
     6.83593760         -10.74218720          -3.90624960
     5.85937520         -10.74218720          -4.88281280
     5.85937520         -10.74218720          -5.85937520
     5.85937520         -11.71875040          -7.81250000
     6.83593760         -11.71875040          -7.81250000
     6.83593760         -11.71875040          -8.78906240
     7.81250000         -11.71875040          -8.78906240
     8.78906240         -11.71875040          -8.78906240
    10.74218720         -11.71875040          -8.78906240
    11.71875040         -11.71875040          -7.81250000
    11.71875040         -11.71875040          -6.83593760
    13.67187520         -11.71875040          -5.85937520
    13.67187520         -11.71875040          -4.88281280
    14.64843760         -11.71875040          -3.90624960
    14.64843760         -10.74218720          -2.92968720
    14.64843760         -11.71875040          -1.95312480
    14.64843760         -10.74218720           0.00000000
    14.64843760         -10.74218720           0.97656240
    13.67187520         -10.74218720           0.97656240
    14.64843760         -10.74218720           0.97656240
    13.67187520         -10.74218720           1.95312480
    13.67187520         -10.74218720           1.95312480
    12.69531280         -10.74218720           2.92968720
    12.69531280         -10.74218720           2.92968720
    12.69531280         -10.74218720           2.92968720
    11.71875040         -10.74218720           3.90624960
    10.74218720         -10.74218720           4.88281280
     9.76562480         -10.74218720           6.83593760
     9.76562480         -10.74218720           6.83593760
     9.76562480         -10.74218720           8.78906240
     9.76562480          -9.76562480           8.78906240
     9.76562480          -9.76562480           8.78906240
     9.76562480          -9.76562480           8.78906240
     8.78906240          -9.76562480           8.78906240
     9.76562480          -9.76562480           8.78906240
     9.76562480          -9.76562480           7.81250000
     8.78906240          -9.76562480           7.81250000
     8.78906240          -9.76562480           7.81250000
     9.76562480          -9.76562480           6.83593760
     9.76562480          -9.76562480           6.83593760
     8.78906240          -9.76562480           6.83593760
     8.78906240          -9.76562480           6.83593760
     8.78906240         -10.74218720           6.83593760
     8.78906240         -10.74218720           7.81250000
     8.78906240         -10.74218720           7.81250000
     8.78906240         -10.74218720           6.83593760
     8.78906240         -10.74218720           7.81250000
     8.78906240         -10.74218720           7.81250000
     9.76562480         -10.74218720           6.83593760
     9.76562480         -10.74218720           6.83593760
     9.76562480         -10.74218720           5.85937520
    10.74218720         -10.74218720           4.88281280
    11.71875040         -10.74218720           4.88281280
    12.69531280         -10.74218720           3.90624960
    12.69531280         -10.74218720           2.92968720
    12.69531280         -10.74218720           1.95312480
    13.67187520         -10.74218720           1.95312480
    13.67187520         -10.74218720           0.97656240
    12.69531280         -10.74218720           0.00000000
    12.69531280         -11.71875040          -0.97656240
    11.71875040         -11.71875040          -1.95312480
    11.71875040         -11.71875040          -2.92968720
    11.71875040         -11.71875040          -4.88281280
    10.74218720         -11.71875040          -4.88281280
    10.74218720         -10.74218720          -6.83593760
    10.74218720         -10.74218720          -7.81250000
    10.74218720         -10.74218720          -7.81250000
    10.74218720         -10.74218720          -7.81250000
    10.74218720         -10.74218720          -7.81250000
    10.74218720          -9.76562480          -6.83593760
     9.76562480          -9.76562480          -5.85937520
    10.74218720          -9.76562480          -4.88281280
     9.76562480          -9.76562480          -2.92968720
    10.74218720          -9.76562480          -1.95312480
     9.76562480          -9.76562480           0.00000000
     9.76562480          -9.76562480           0.00000000
     9.76562480          -8.78906240           1.95312480
     9.76562480          -8.78906240           1.95312480
     9.76562480          -8.78906240           2.92968720
     9.76562480          -8.78906240           2.92968720
    10.74218720          -9.76562480           3.90624960
     9.76562480          -9.76562480           3.90624960
    10.74218720          -9.76562480           3.90624960
     9.76562480          -9.76562480           4.88281280
     9.76562480          -9.76562480           4.88281280
     9.76562480          -9.76562480           4.88281280
     9.76562480         -10.74218720           5.85937520
     9.76562480         -10.74218720           6.83593760
     9.76562480         -10.74218720           6.83593760
     9.76562480         -10.74218720           7.81250000
     9.76562480         -10.74218720           7.81250000
    10.74218720         -10.74218720           7.81250000
    11.71875040         -10.74218720           6.83593760
    11.71875040         -10.74218720           6.83593760
    11.71875040         -10.74218720           5.85937520
    12.69531280         -11.71875040           4.88281280
    12.69531280         -11.71875040           3.90624960
    12.69531280         -10.74218720           2.92968720
    12.69531280         -10.74218720           2.92968720
    12.69531280         -11.71875040           2.92968720
    11.71875040         -11.71875040           2.92968720
    12.69531280         -11.71875040           1.95312480
    10.74218720         -11.71875040           2.92968720
    11.71875040         -10.74218720           2.92968720
    10.74218720         -10.74218720           2.92968720
