SERVICIO GEOLOGICO COLOMBIANO- RED NACIONAL DE ACELEROGRAFOS DE COLOMBIA
SISMO DE LOS SANTOS (SANTANDER) 1994/03/28 19:27:32 ML=5.5
LATITUD DEL EVENTO(GRADOS): 6.749
LONGITUD DEL EVENTO(GRADOS): -73.06
PROFUNDIDAD DEL EVENTO (Km): 160
CODIGO DE LA ESTACION: CPENS
Estacion:PENSILVANIA Geol:ROCA Topo:ONDULADA
LATITUD DE LA ESTACION (GRADOS): 5.393
LONGITUD DE LA ESTACION (GRADOS): -75.161
DISTANCIA EPICENTRAL: 277.565193742 km
DISTANCIA HIPOCENTRAL: 320.378583518 km
INTERVALO DE MUESTREO (SEGUNDOS): 0.005
NUMERO DE DATOS: 3328
DURACION (SEGUNDOS): 16.64
UNIDADES: cm/s^2
TIPO DE EQUIPO: SSA
ESCALA MAXIMA (G): 2
CORRECCION DE LINEA BASE: LINEA BASE NO REMOVIDA
TIPO DE DATOS: NO CORREGIDO
         EW                  VER                  NS
[...]
    17.57812480         -10.74218720           0.97656240
    18.55468720         -10.74218720           1.95312480
    18.55468720         -10.74218720           1.95312480
    18.55468720         -10.74218720           1.95312480
    18.55468720         -10.74218720           1.95312480
    18.55468720         -10.74218720           2.92968720
    18.55468720         -10.74218720           2.92968720
    18.55468720         -10.74218720           3.90624960
    18.55468720         -10.74218720           3.90624960
    18.55468720         -10.74218720           4.88281280
    18.55468720         -11.71875040           4.88281280
    19.53124960         -10.74218720           5.85937520
    19.53124960         -11.71875040           6.83593760
    20.50781280         -10.74218720           6.83593760
    20.50781280         -11.71875040           7.81250000
    20.50781280         -11.71875040           8.78906240
    20.50781280         -11.71875040           8.78906240
    20.50781280         -11.71875040           9.76562480
    21.48437520         -11.71875040          10.74218720
    21.48437520         -10.74218720          10.74218720
    20.50781280         -11.71875040          10.74218720
    20.50781280         -11.71875040          10.74218720
    20.50781280         -11.71875040          10.74218720
    20.50781280         -11.71875040          10.74218720
    19.53124960         -11.71875040          10.74218720
    19.53124960         -11.71875040           9.76562480
    19.53124960         -11.71875040           9.76562480
    18.55468720         -11.71875040           8.78906240
    18.55468720         -11.71875040           8.78906240
    18.55468720         -11.71875040           7.81250000
    18.55468720         -11.71875040           6.83593760
    18.55468720         -11.71875040           6.83593760
    18.55468720         -11.71875040           5.85937520
    18.55468720         -11.71875040           4.88281280
    18.55468720         -11.71875040           4.88281280
    18.55468720         -11.71875040           4.88281280
    17.57812480         -11.71875040           3.90624960
    17.57812480         -11.71875040           3.90624960
    17.57812480         -11.71875040           2.92968720
    16.60156240         -10.74218720           2.92968720
    16.60156240         -10.74218720           2.92968720
    15.62500000         -10.74218720           2.92968720
    14.64843760         -10.74218720           2.92968720
    14.64843760         -10.74218720           3.90624960
    13.67187520         -10.74218720           3.90624960
    13.67187520         -10.74218720           3.90624960
    13.67187520         -10.74218720           3.90624960
    12.69531280         -10.74218720           3.90624960
    13.67187520         -10.74218720           3.90624960
    13.67187520         -10.74218720           3.90624960
    13.67187520         -10.74218720           3.90624960
    14.64843760         -11.71875040           3.90624960
    14.64843760         -11.71875040           2.92968720
    15.62500000         -11.71875040           2.92968720
    15.62500000         -11.71875040           2.92968720
    16.60156240         -11.71875040           2.92968720
    16.60156240         -11.71875040           2.92968720
    17.57812480         -11.71875040           1.95312480
    17.57812480         -11.71875040           1.95312480
    17.57812480         -11.71875040           2.92968720
    17.57812480         -11.71875040           2.92968720
    18.55468720         -11.71875040           2.92968720
    17.57812480         -11.71875040           3.90624960
    18.55468720         -11.71875040           3.90624960
    18.55468720         -11.71875040           3.90624960
    17.57812480         -11.71875040           4.88281280
    17.57812480         -11.71875040           4.88281280
    17.57812480         -11.71875040           4.88281280
    17.57812480         -11.71875040           4.88281280
    18.55468720         -11.71875040           5.85937520
    18.55468720         -10.74218720           5.85937520
    18.55468720         -10.74218720           6.83593760
    18.55468720         -10.74218720           6.83593760
    19.53124960         -10.74218720           6.83593760
    19.53124960         -10.74218720           6.83593760
    19.53124960         -10.74218720           6.83593760
    19.53124960         -10.74218720           6.83593760
    18.55468720         -10.74218720           6.83593760
    18.55468720         -10.74218720           6.83593760
    18.55468720         -10.74218720           6.83593760
    18.55468720         -10.74218720           6.83593760
    17.57812480         -10.74218720           6.83593760
    17.57812480         -10.74218720           6.83593760
    17.57812480         -10.74218720           5.85937520
    17.57812480         -10.74218720           5.85937520
    17.57812480         -10.74218720           4.88281280
    17.57812480         -10.74218720           4.88281280
    17.57812480         -10.74218720           3.90624960
    17.57812480         -10.74218720           3.90624960
    17.57812480         -10.74218720           2.92968720
    17.57812480         -10.74218720           2.92968720
    17.57812480         -10.74218720           2.92968720
    17.57812480         -10.74218720           1.95312480
    17.57812480         -10.74218720           2.92968720
    17.57812480         -10.74218720           2.92968720
    17.57812480         -11.71875040           2.92968720
    17.57812480         -11.71875040           3.90624960
    17.57812480         -11.71875040           3.90624960
    17.57812480         -11.71875040           3.90624960
    17.57812480         -11.71875040           4.88281280
    17.57812480         -11.71875040           4.88281280
    17.57812480         -11.71875040           4.88281280
    17.57812480         -11.71875040           5.85937520
    17.57812480         -11.71875040           5.85937520
    17.57812480         -11.71875040           6.83593760
    17.57812480         -11.71875040           6.83593760
    17.57812480         -11.71875040           6.83593760
    17.57812480         -11.71875040           6.83593760
    16.60156240         -11.71875040           7.81250000
    16.60156240         -11.71875040           7.81250000
    16.60156240         -11.71875040           7.81250000
    16.60156240         -11.71875040           7.81250000
    16.60156240         -11.71875040           7.81250000
    16.60156240         -11.71875040           7.81250000
    16.60156240         -11.71875040           7.81250000
    16.60156240         -11.71875040           7.81250000
    16.60156240         -10.74218720           7.81250000
    16.60156240         -11.71875040           7.81250000
    17.57812480         -10.74218720           7.81250000
    17.57812480         -10.74218720           7.81250000
    17.57812480         -11.71875040           7.81250000
    17.57812480         -11.71875040           6.83593760
    17.57812480         -10.74218720           6.83593760
    17.57812480         -10.74218720           6.83593760
    18.55468720         -10.74218720           5.85937520
    17.57812480         -11.71875040           5.85937520
    18.55468720         -11.71875040           4.88281280
    17.57812480         -10.74218720           3.90624960
    17.57812480         -11.71875040           3.90624960
    17.57812480         -10.74218720           2.92968720
    17.57812480         -10.74218720           2.92968720
    17.57812480         -10.74218720           2.92968720
    16.60156240         -10.74218720           1.95312480
    17.57812480         -10.74218720           1.95312480
    17.57812480         -10.74218720           1.95312480
    16.60156240         -10.74218720           1.95312480
    17.57812480         -10.74218720           1.95312480
    17.57812480         -11.71875040           2.92968720
    17.57812480         -11.71875040           2.92968720
    17.57812480         -10.74218720           2.92968720
    18.55468720         -11.71875040           2.92968720
    18.55468720         -11.71875040           2.92968720
    18.55468720         -11.71875040           2.92968720
    18.55468720         -11.71875040           2.92968720
    19.53124960         -11.71875040           2.92968720
    19.53124960         -11.71875040           2.92968720
    20.50781280         -11.71875040           2.92968720
    20.50781280         -11.71875040           2.92968720
    20.50781280         -11.71875040           3.90624960
    20.50781280         -11.71875040           3.90624960
    20.50781280         -11.71875040           4.88281280
    20.50781280         -10.74218720           5.85937520
    20.50781280         -11.71875040           5.85937520
    19.53124960         -10.74218720           6.83593760
    19.53124960         -10.74218720           6.83593760
    18.55468720         -11.71875040           7.81250000
    17.57812480         -10.74218720           8.78906240
    16.60156240         -11.71875040           7.81250000
    16.60156240         -10.74218720           8.78906240
    15.62500000         -10.74218720           8.78906240
    14.64843760         -11.71875040           8.78906240
    14.64843760         -11.71875040           8.78906240
    13.67187520         -11.71875040           8.78906240
    13.67187520         -11.71875040           7.81250000
    13.67187520         -11.71875040           7.81250000
    13.67187520         -11.71875040           7.81250000
    13.67187520         -10.74218720           6.83593760
    13.67187520         -11.71875040           6.83593760
    13.67187520         -10.74218720           6.83593760
    13.67187520         -10.74218720           5.85937520
    13.67187520         -10.74218720           4.88281280
    13.67187520         -10.74218720           4.88281280
    13.67187520         -10.74218720           4.88281280
    13.67187520         -10.74218720           3.90624960
    13.67187520         -10.74218720           3.90624960
    13.67187520         -10.74218720           3.90624960
    14.64843760         -10.74218720           3.90624960
    14.64843760         -10.74218720           3.90624960
    14.64843760         -11.71875040           3.90624960
    15.62500000         -10.74218720           3.90624960
    16.60156240         -10.74218720           3.90624960
    16.60156240         -10.74218720           3.90624960
    16.60156240         -11.71875040           3.90624960
    17.57812480         -11.71875040           3.90624960
    17.57812480         -11.71875040           3.90624960
    18.55468720         -10.74218720           3.90624960
    18.55468720         -10.74218720           3.90624960
    18.55468720         -10.74218720           3.90624960
    19.53124960         -10.74218720           3.90624960
    19.53124960         -10.74218720           3.90624960
    19.53124960         -10.74218720           3.90624960
    19.53124960         -10.74218720           3.90624960
    19.53124960         -10.74218720           3.90624960
    19.53124960         -10.74218720           3.90624960
    19.53124960         -10.74218720           4.88281280
    19.53124960         -10.74218720           4.88281280
    19.53124960         -10.74218720           4.88281280
    19.53124960         -11.71875040           4.88281280
    20.50781280         -11.71875040           4.88281280
    20.50781280         -11.71875040           4.88281280
    20.50781280         -11.71875040           3.90624960
    20.50781280         -11.71875040           4.88281280
    20.50781280         -11.71875040           3.90624960
    21.48437520         -11.71875040           3.90624960
    21.48437520         -11.71875040           3.90624960
    21.48437520         -11.71875040           3.90624960
    22.46093760         -11.71875040           3.90624960
    22.46093760         -11.71875040           3.90624960
    22.46093760         -11.71875040           3.90624960
    22.46093760         -11.71875040           4.88281280
    22.46093760         -11.71875040           4.88281280
    22.46093760         -11.71875040           4.88281280
    21.48437520         -11.71875040           4.88281280
    21.48437520         -10.74218720           5.85937520
    21.48437520         -10.74218720           5.85937520
    20.50781280         -10.74218720           6.83593760
    20.50781280         -10.74218720           6.83593760
    19.53124960         -11.71875040           7.81250000
    19.53124960         -10.74218720           7.81250000
    18.55468720         -10.74218720           7.81250000
    17.57812480         -10.74218720           8.78906240
    17.57812480         -10.74218720           8.78906240
    16.60156240         -11.71875040           8.78906240
    15.62500000         -10.74218720           8.78906240
    14.64843760         -10.74218720           8.78906240
    14.64843760         -10.74218720           8.78906240
    13.67187520         -10.74218720           7.81250000
    12.69531280         -10.74218720           7.81250000
    11.71875040         -10.74218720           7.81250000
    11.71875040         -10.74218720           7.81250000
    10.74218720         -10.74218720           6.83593760
     9.76562480         -10.74218720           6.83593760
     9.76562480         -10.74218720           6.83593760
     9.76562480         -11.71875040           6.83593760
     9.76562480         -10.74218720           6.83593760
     9.76562480         -10.74218720           5.85937520
     9.76562480         -11.71875040           5.85937520
    10.74218720         -11.71875040           4.88281280
    10.74218720         -10.74218720           4.88281280
    11.71875040         -11.71875040           4.88281280
    12.69531280         -11.71875040           3.90624960
    12.69531280         -11.71875040           3.90624960
    13.67187520         -11.71875040           3.90624960
    14.64843760         -11.71875040           2.92968720
    15.62500000         -11.71875040           2.92968720
    16.60156240         -11.71875040           2.92968720
    16.60156240         -11.71875040           2.92968720
    17.57812480         -11.71875040           1.95312480
    18.55468720         -11.71875040           1.95312480
    19.53124960         -11.71875040           1.95312480
    19.53124960         -11.71875040           1.95312480
    20.50781280         -11.71875040           1.95312480
    21.48437520         -11.71875040           1.95312480
    21.48437520         -11.71875040           2.92968720
    22.46093760         -11.71875040           2.92968720
    22.46093760         -11.71875040           2.92968720
    22.46093760         -11.71875040           3.90624960
    23.43750000         -11.71875040           3.90624960
    23.43750000         -10.74218720           3.90624960
    23.43750000         -10.74218720           4.88281280
    23.43750000         -10.74218720           4.88281280
    23.43750000         -10.74218720           4.88281280
    22.46093760         -10.74218720           4.88281280
    22.46093760         -10.74218720           5.85937520
    22.46093760         -10.74218720           5.85937520
    21.48437520         -10.74218720           5.85937520
    21.48437520         -10.74218720           5.85937520
    20.50781280         -11.71875040           5.85937520
    20.50781280         -10.74218720           5.85937520
    20.50781280         -10.74218720           5.85937520
    19.53124960         -10.74218720           4.88281280
    19.53124960         -10.74218720           4.88281280
    19.53124960         -10.74218720           3.90624960
    19.53124960         -10.74218720           3.90624960
    18.55468720         -10.74218720           3.90624960
    18.55468720         -10.74218720           2.92968720
    18.55468720         -10.74218720           2.92968720
    17.57812480         -10.74218720           3.90624960
    17.57812480         -11.71875040           3.90624960
    17.57812480         -10.74218720           3.90624960
    17.57812480         -11.71875040           3.90624960
    17.57812480         -10.74218720           4.88281280
    17.57812480         -11.71875040           4.88281280
    17.57812480         -10.74218720           5.85937520
    17.57812480         -10.74218720           5.85937520
    17.57812480         -10.74218720           6.83593760
    17.57812480         -10.74218720           6.83593760
    16.60156240         -10.74218720           6.83593760
    16.60156240         -10.74218720           6.83593760
    16.60156240         -10.74218720           6.83593760
    15.62500000         -10.74218720           6.83593760
    15.62500000         -10.74218720           6.83593760
    14.64843760         -10.74218720           6.83593760
    14.64843760         -10.74218720           6.83593760
    13.67187520         -10.74218720           6.83593760
    13.67187520         -10.74218720           6.83593760
    13.67187520         -11.71875040           6.83593760
    12.69531280         -11.71875040           5.85937520
    12.69531280         -11.71875040           6.83593760
    12.69531280         -11.71875040           6.83593760
    12.69531280         -11.71875040           5.85937520
    12.69531280         -11.71875040           6.83593760
    12.69531280         -11.71875040           5.85937520
    13.67187520         -11.71875040           5.85937520
    13.67187520         -11.71875040           5.85937520
    13.67187520         -11.71875040           5.85937520
    14.64843760         -11.71875040           5.85937520
    14.64843760         -11.71875040           4.88281280
    15.62500000         -11.71875040           4.88281280
    15.62500000         -11.71875040           4.88281280
    16.60156240         -11.71875040           4.88281280
    16.60156240         -11.71875040           5.85937520
    16.60156240         -11.71875040           5.85937520
    16.60156240         -11.71875040           5.85937520
    16.60156240         -11.71875040           5.85937520
    17.57812480         -11.71875040           5.85937520
    17.57812480         -11.71875040           5.85937520
    18.55468720         -11.71875040           5.85937520
    18.55468720         -11.71875040           5.85937520
    18.55468720         -11.71875040           5.85937520
    19.53124960         -11.71875040           5.85937520
    19.53124960         -11.71875040           5.85937520
    20.50781280         -11.71875040           4.88281280
    20.50781280         -11.71875040           4.88281280
    21.48437520         -11.71875040           4.88281280
    21.48437520         -10.74218720           4.88281280
    21.48437520         -10.74218720           4.88281280
    21.48437520         -10.74218720           4.88281280
    22.46093760         -10.74218720           4.88281280
    21.48437520         -10.74218720           4.88281280
    22.46093760         -10.74218720           4.88281280
