SERVICIO GEOLOGICO COLOMBIANO- RED NACIONAL DE ACELEROGRAFOS DE COLOMBIA
SISMO DE SAN JOSE DEL PALMAR (CHOCO) 1994/02/28 04:55:13 ML=4.8
LATITUD DEL EVENTO(GRADOS): 5.081
LONGITUD DEL EVENTO(GRADOS): -76.181
PROFUNDIDAD DEL EVENTO (Km): 20
CODIGO DE LA ESTACION: CANSE
Estacion:ANSERMA Geol:ROCA Topo:ONDULADA
LATITUD DE LA ESTACION (GRADOS): 5.264
LONGITUD DE LA ESTACION (GRADOS): -75.815
DISTANCIA EPICENTRAL: 45.421248827 km
DISTANCIA HIPOCENTRAL: 49.6295259397 km
INTERVALO DE MUESTREO (SEGUNDOS): 0.005
NUMERO DE DATOS: 4864
DURACION (SEGUNDOS): 24.32
UNIDADES: cm/s^2
TIPO DE EQUIPO: SSA
ESCALA MAXIMA (G): 2
CORRECCION DE LINEA BASE: LINEA BASE NO REMOVIDA
TIPO DE DATOS: NO CORREGIDO
         EW                  VER                  NS
[...]
    -7.81250000          -4.88281280         -27.34375040
    -7.81250000          -4.88281280         -28.32031280
    -5.85937520          -4.88281280         -28.32031280
    -4.88281280          -4.88281280         -28.32031280
    -4.88281280          -4.88281280         -27.34375040
    -3.90624960          -4.88281280         -27.34375040
    -4.88281280          -4.88281280         -27.34375040
    -4.88281280          -4.88281280         -26.36718720
    -5.85937520          -4.88281280         -25.39062480
    -6.83593760          -4.88281280         -24.41406240
    -7.81250000          -4.88281280         -23.43750000
    -7.81250000          -4.88281280         -22.46093760
    -8.78906240          -4.88281280         -21.48437520
    -8.78906240          -4.88281280         -20.50781280
    -8.78906240          -4.88281280         -20.50781280
    -8.78906240          -4.88281280         -19.53124960
    -7.81250000          -4.88281280         -19.53124960
    -7.81250000          -4.88281280         -19.53124960
    -7.81250000          -3.90624960         -19.53124960
    -7.81250000          -3.90624960         -20.50781280
    -7.81250000          -3.90624960         -21.48437520
    -7.81250000          -3.90624960         -22.46093760
    -7.81250000          -4.88281280         -23.43750000
    -7.81250000          -4.88281280         -24.41406240
    -7.81250000          -4.88281280         -26.36718720
    -7.81250000          -4.88281280         -27.34375040
    -6.83593760          -4.88281280         -28.32031280
    -6.83593760          -5.85937520         -29.29687520
    -5.85937520          -4.88281280         -30.27343760
    -5.85937520          -4.88281280         -30.27343760
    -5.85937520          -4.88281280         -30.27343760
    -4.88281280          -4.88281280         -30.27343760
    -5.85937520          -4.88281280         -30.27343760
    -5.85937520          -4.88281280         -29.29687520
    -6.83593760          -4.88281280         -29.29687520
    -6.83593760          -4.88281280         -27.34375040
    -6.83593760          -4.88281280         -26.36718720
    -7.81250000          -4.88281280         -24.41406240
    -7.81250000          -3.90624960         -22.46093760
    -6.83593760          -3.90624960         -21.48437520
    -6.83593760          -3.90624960         -19.53124960
    -5.85937520          -3.90624960         -18.55468720
    -5.85937520          -3.90624960         -17.57812480
    -5.85937520          -3.90624960         -16.60156240
    -5.85937520          -3.90624960         -17.57812480
    -6.83593760          -3.90624960         -17.57812480
    -7.81250000          -3.90624960         -18.55468720
    -8.78906240          -3.90624960         -19.53124960
    -9.76562480          -4.88281280         -20.50781280
   -10.74218720          -4.88281280         -22.46093760
   -10.74218720          -4.88281280         -24.41406240
   -10.74218720          -4.88281280         -25.39062480
   -10.74218720          -4.88281280         -27.34375040
    -9.76562480          -4.88281280         -28.32031280
    -8.78906240          -5.85937520         -30.27343760
    -7.81250000          -5.85937520         -31.25000000
    -6.83593760          -5.85937520         -32.22656240
    -6.83593760          -5.85937520         -33.20312480
    -5.85937520          -5.85937520         -33.20312480
    -5.85937520          -5.85937520         -33.20312480
    -6.83593760          -5.85937520         -32.22656240
    -6.83593760          -4.88281280         -31.25000000
    -7.81250000          -5.85937520         -30.27343760
    -7.81250000          -4.88281280         -28.32031280
    -7.81250000          -4.88281280         -26.36718720
    -7.81250000          -4.88281280         -23.43750000
    -7.81250000          -3.90624960         -21.48437520
    -7.81250000          -3.90624960         -18.55468720
    -7.81250000          -3.90624960         -16.60156240
    -7.81250000          -2.92968720         -14.64843760
    -7.81250000          -2.92968720         -13.67187520
    -8.78906240          -2.92968720         -12.69531280
    -8.78906240          -2.92968720         -12.69531280
    -8.78906240          -2.92968720         -13.67187520
    -8.78906240          -3.90624960         -13.67187520
    -8.78906240          -3.90624960         -15.62500000
    -8.78906240          -3.90624960         -17.57812480
    -7.81250000          -4.88281280         -20.50781280
    -6.83593760          -4.88281280         -23.43750000
    -5.85937520          -4.88281280         -26.36718720
    -4.88281280          -4.88281280         -29.29687520
    -3.90624960          -4.88281280         -32.22656240
    -3.90624960          -4.88281280         -34.17968720
    -2.92968720          -4.88281280         -37.10937520
    -3.90624960          -5.85937520         -38.08593760
    -3.90624960          -5.85937520         -39.06250000
    -4.88281280          -5.85937520         -39.06250000
    -5.85937520          -5.85937520         -38.08593760
    -5.85937520          -5.85937520         -37.10937520
    -6.83593760          -4.88281280         -35.15624960
    -6.83593760          -4.88281280         -32.22656240
    -6.83593760          -4.88281280         -29.29687520
    -6.83593760          -4.88281280         -26.36718720
    -6.83593760          -3.90624960         -23.43750000
    -6.83593760          -3.90624960         -21.48437520
    -7.81250000          -3.90624960         -18.55468720
    -7.81250000          -3.90624960         -16.60156240
    -8.78906240          -3.90624960         -14.64843760
    -8.78906240          -3.90624960         -13.67187520
    -9.76562480          -3.90624960         -13.67187520
    -9.76562480          -3.90624960         -12.69531280
    -9.76562480          -3.90624960         -13.67187520
    -9.76562480          -3.90624960         -14.64843760
    -8.78906240          -3.90624960         -16.60156240
    -7.81250000          -4.88281280         -17.57812480
    -7.81250000          -4.88281280         -20.50781280
    -7.81250000          -4.88281280         -22.46093760
    -6.83593760          -4.88281280         -25.39062480
    -6.83593760          -4.88281280         -28.32031280
    -6.83593760          -4.88281280         -31.25000000
    -6.83593760          -4.88281280         -33.20312480
    -7.81250000          -5.85937520         -35.15624960
    -6.83593760          -5.85937520         -36.13281280
    -6.83593760          -5.85937520         -37.10937520
    -6.83593760          -5.85937520         -37.10937520
    -5.85937520          -5.85937520         -36.13281280
    -5.85937520          -5.85937520         -34.17968720
    -4.88281280          -5.85937520         -31.25000000
    -5.85937520          -4.88281280         -28.32031280
    -5.85937520          -4.88281280         -25.39062480
    -6.83593760          -4.88281280         -22.46093760
    -7.81250000          -3.90624960         -18.55468720
    -8.78906240          -3.90624960         -15.62500000
    -9.76562480          -3.90624960         -13.67187520
   -10.74218720          -3.90624960         -11.71875040
   -10.74218720          -3.90624960         -10.74218720
    -9.76562480          -3.90624960         -10.74218720
    -9.76562480          -3.90624960         -10.74218720
    -7.81250000          -3.90624960         -12.69531280
    -6.83593760          -3.90624960         -14.64843760
    -4.88281280          -3.90624960         -17.57812480
    -3.90624960          -3.90624960         -20.50781280
    -2.92968720          -3.90624960         -23.43750000
    -2.92968720          -3.90624960         -27.34375040
    -2.92968720          -4.88281280         -30.27343760
    -2.92968720          -4.88281280         -32.22656240
    -3.90624960          -4.88281280         -35.15624960
    -4.88281280          -4.88281280         -36.13281280
    -6.83593760          -4.88281280         -37.10937520
    -7.81250000          -4.88281280         -37.10937520
    -7.81250000          -4.88281280         -36.13281280
    -8.78906240          -4.88281280         -35.15624960
    -9.76562480          -4.88281280         -33.20312480
    -9.76562480          -4.88281280         -30.27343760
    -9.76562480          -5.85937520         -27.34375040
    -9.76562480          -5.85937520         -24.41406240
    -9.76562480          -4.88281280         -22.46093760
    -8.78906240          -4.88281280         -19.53124960
    -9.76562480          -4.88281280         -17.57812480
    -8.78906240          -4.88281280         -16.60156240
    -8.78906240          -3.90624960         -15.62500000
    -8.78906240          -3.90624960         -14.64843760
    -8.78906240          -3.90624960         -14.64843760
    -8.78906240          -2.92968720         -15.62500000
    -8.78906240          -3.90624960         -17.57812480
    -7.81250000          -3.90624960         -19.53124960
    -7.81250000          -3.90624960         -20.50781280
    -6.83593760          -3.90624960         -22.46093760
    -6.83593760          -4.88281280         -24.41406240
    -5.85937520          -4.88281280         -26.36718720
    -5.85937520          -4.88281280         -28.32031280
    -4.88281280          -4.88281280         -29.29687520
    -5.85937520          -4.88281280         -30.27343760
    -5.85937520          -4.88281280         -31.25000000
    -5.85937520          -4.88281280         -32.22656240
    -5.85937520          -4.88281280         -32.22656240
    -6.83593760          -4.88281280         -32.22656240
    -6.83593760          -4.88281280         -31.25000000
    -7.81250000          -5.85937520         -30.27343760
    -7.81250000          -5.85937520         -29.29687520
    -7.81250000          -5.85937520         -27.34375040
    -7.81250000          -5.85937520         -26.36718720
    -7.81250000          -5.85937520         -25.39062480
    -7.81250000          -4.88281280         -23.43750000
    -7.81250000          -4.88281280         -22.46093760
    -7.81250000          -4.88281280         -22.46093760
    -7.81250000          -3.90624960         -21.48437520
    -7.81250000          -3.90624960         -22.46093760
    -7.81250000          -3.90624960         -22.46093760
    -6.83593760          -3.90624960         -22.46093760
    -6.83593760          -3.90624960         -23.43750000
    -4.88281280          -3.90624960         -23.43750000
    -4.88281280          -3.90624960         -24.41406240
    -3.90624960          -3.90624960         -24.41406240
    -2.92968720          -3.90624960         -24.41406240
    -2.92968720          -3.90624960         -24.41406240
    -2.92968720          -3.90624960         -23.43750000
    -3.90624960          -3.90624960         -23.43750000
    -4.88281280          -3.90624960         -22.46093760
    -6.83593760          -4.88281280         -22.46093760
    -8.78906240          -4.88281280         -21.48437520
    -9.76562480          -4.88281280         -20.50781280
   -10.74218720          -4.88281280         -20.50781280
   -12.69531280          -4.88281280         -19.53124960
   -12.69531280          -4.88281280         -19.53124960
   -12.69531280          -4.88281280         -19.53124960
   -12.69531280          -4.88281280         -20.50781280
   -11.71875040          -4.88281280         -21.48437520
   -10.74218720          -4.88281280         -24.41406240
    -9.76562480          -4.88281280         -25.39062480
    -8.78906240          -4.88281280         -27.34375040
    -7.81250000          -4.88281280         -29.29687520
    -6.83593760          -4.88281280         -31.25000000
    -5.85937520          -4.88281280         -33.20312480
    -4.88281280          -4.88281280         -34.17968720
    -3.90624960          -4.88281280         -35.15624960
    -2.92968720          -4.88281280         -35.15624960
    -1.95312480          -4.88281280         -34.17968720
    -1.95312480          -4.88281280         -33.20312480
    -1.95312480          -4.88281280         -31.25000000
    -1.95312480          -4.88281280         -28.32031280
    -2.92968720          -3.90624960         -26.36718720
    -3.90624960          -3.90624960         -22.46093760
    -5.85937520          -3.90624960         -19.53124960
    -6.83593760          -2.92968720         -16.60156240
    -8.78906240          -2.92968720         -13.67187520
    -9.76562480          -2.92968720         -11.71875040
   -11.71875040          -2.92968720          -9.76562480
   -11.71875040          -3.90624960          -8.78906240
   -12.69531280          -3.90624960          -8.78906240
   -13.67187520          -3.90624960          -8.78906240
   -13.67187520          -4.88281280         -10.74218720
   -12.69531280          -4.88281280         -14.64843760
   -12.69531280          -4.88281280         -17.57812480
   -10.74218720          -4.88281280         -23.43750000
    -9.76562480          -4.88281280         -28.32031280
    -6.83593760          -4.88281280         -33.20312480
    -4.88281280          -4.88281280         -39.06250000
    -2.92968720          -4.88281280         -42.96875040
    -0.97656240          -4.88281280         -45.89843760
     0.97656240          -4.88281280         -47.85156240
     0.97656240          -5.85937520         -48.82812480
     0.97656240          -5.85937520         -47.85156240
     0.97656240          -5.85937520         -45.89843760
    -0.97656240          -5.85937520         -41.99218720
    -1.95312480          -4.88281280         -37.10937520
    -3.90624960          -4.88281280         -31.25000000
    -5.85937520          -4.88281280         -25.39062480
    -7.81250000          -4.88281280         -19.53124960
    -9.76562480          -3.90624960         -14.64843760
   -10.74218720          -3.90624960          -9.76562480
   -12.69531280          -3.90624960          -6.83593760
   -13.67187520          -3.90624960          -4.88281280
   -14.64843760          -3.90624960          -3.90624960
   -15.62500000          -3.90624960          -3.90624960
   -15.62500000          -3.90624960          -5.85937520
   -15.62500000          -3.90624960          -8.78906240
   -14.64843760          -3.90624960         -12.69531280
   -12.69531280          -3.90624960         -16.60156240
   -10.74218720          -4.88281280         -20.50781280
    -7.81250000          -4.88281280         -23.43750000
    -4.88281280          -4.88281280         -27.34375040
    -2.92968720          -4.88281280         -30.27343760
    -0.97656240          -4.88281280         -33.20312480
     0.00000000          -4.88281280         -35.15624960
     0.00000000          -5.85937520         -36.13281280
     0.00000000          -5.85937520         -37.10937520
    -0.97656240          -5.85937520         -37.10937520
    -2.92968720          -5.85937520         -35.15624960
    -4.88281280          -4.88281280         -33.20312480
    -7.81250000          -4.88281280         -31.25000000
    -9.76562480          -4.88281280         -28.32031280
   -10.74218720          -4.88281280         -25.39062480
   -12.69531280          -4.88281280         -21.48437520
   -12.69531280          -4.88281280         -19.53124960
   -12.69531280          -4.88281280         -17.57812480
   -11.71875040          -4.88281280         -16.60156240
   -10.74218720          -4.88281280         -17.57812480
    -8.78906240          -4.88281280         -18.55468720
    -7.81250000          -4.88281280         -20.50781280
    -5.85937520          -4.88281280         -22.46093760
    -4.88281280          -4.88281280         -25.39062480
    -3.90624960          -4.88281280         -28.32031280
    -2.92968720          -3.90624960         -31.25000000
    -2.92968720          -3.90624960         -32.22656240
    -2.92968720          -3.90624960         -33.20312480
    -3.90624960          -3.90624960         -33.20312480
    -4.88281280          -3.90624960         -32.22656240
    -5.85937520          -3.90624960         -29.29687520
    -6.83593760          -4.88281280         -26.36718720
    -7.81250000          -4.88281280         -24.41406240
    -8.78906240          -4.88281280         -21.48437520
    -9.76562480          -4.88281280         -19.53124960
    -9.76562480          -4.88281280         -17.57812480
   -10.74218720          -4.88281280         -15.62500000
   -10.74218720          -4.88281280         -14.64843760
   -10.74218720          -4.88281280         -14.64843760
    -9.76562480          -4.88281280         -15.62500000
    -9.76562480          -4.88281280         -16.60156240
    -8.78906240          -4.88281280         -19.53124960
    -8.78906240          -4.88281280         -21.48437520
    -7.81250000          -4.88281280         -24.41406240
    -6.83593760          -4.88281280         -27.34375040
    -6.83593760          -4.88281280         -30.27343760
    -5.85937520          -4.88281280         -32.22656240
    -5.85937520          -5.85937520         -34.17968720
    -5.85937520          -5.85937520         -36.13281280
    -5.85937520          -5.85937520         -37.10937520
    -5.85937520          -5.85937520         -36.13281280
    -5.85937520          -5.85937520         -36.13281280
    -5.85937520          -5.85937520         -34.17968720
    -5.85937520          -4.88281280         -32.22656240
    -6.83593760          -4.88281280         -29.29687520
    -6.83593760          -4.88281280         -26.36718720
    -6.83593760          -3.90624960         -23.43750000
    -7.81250000          -3.90624960         -21.48437520
    -7.81250000          -3.90624960         -18.55468720
    -7.81250000          -3.90624960         -16.60156240
    -8.78906240          -3.90624960         -14.64843760
    -8.78906240          -3.90624960         -13.67187520
    -8.78906240          -2.92968720         -12.69531280
    -8.78906240          -3.90624960         -12.69531280
    -7.81250000          -3.90624960         -12.69531280
    -8.78906240          -3.90624960         -13.67187520
    -8.78906240          -4.88281280         -15.62500000
    -8.78906240          -4.88281280         -16.60156240
    -8.78906240          -4.88281280         -19.53124960
    -8.78906240          -4.88281280         -22.46093760
    -8.78906240          -4.88281280         -25.39062480
    -8.78906240          -4.88281280         -28.32031280
    -8.78906240          -4.88281280         -30.27343760
    -8.78906240          -4.88281280         -33.20312480
    -7.81250000          -4.88281280         -36.13281280
    -6.83593760          -4.88281280         -38.08593760
    -4.88281280          -5.85937520         -38.08593760
    -3.90624960          -5.85937520         -39.06250000
    -2.92968720          -4.88281280         -38.08593760
    -1.95312480          -4.88281280         -37.10937520
    -0.97656240          -4.88281280         -35.15624960
    -1.95312480          -4.88281280         -32.22656240
    -2.92968720          -4.88281280         -29.29687520
