SERVICIO GEOLOGICO COLOMBIANO- RED NACIONAL DE ACELEROGRAFOS DE COLOMBIA
SISMO DE MUTATA (ANTIOQUIA) 1994/09/13 10:01:34 ML=6.4
LATITUD DEL EVENTO(GRADOS): 7.246
LONGITUD DEL EVENTO(GRADOS): -76.707
PROFUNDIDAD DEL EVENTO (Km): 28.3
CODIGO DE LA ESTACION: CFILA
Estacion:FILADELFIA Geol:ROCA Topo:ONDULADA
LATITUD DE LA ESTACION (GRADOS): 5.297
LONGITUD DE LA ESTACION (GRADOS): -75.568
DISTANCIA EPICENTRAL: 250.573053144 km
DISTANCIA HIPOCENTRAL: 252.166105895 km
INTERVALO DE MUESTREO (SEGUNDOS): 0.005
NUMERO DE DATOS: 4352
DURACION (SEGUNDOS): 21.76
UNIDADES: cm/s^2
TIPO DE EQUIPO: SSA
ESCALA MAXIMA (G): 1
CORRECCION DE LINEA BASE: LINEA BASE NO REMOVIDA
TIPO DE DATOS: NO CORREGIDO
         EW                  VER                  NS
[...]
    -5.85937520          -1.46484360          -3.41796880
    -5.85937520          -1.46484360          -3.41796880
    -5.37109360          -1.46484360          -3.41796880
    -5.37109360          -1.46484360          -3.41796880
    -5.85937520          -1.46484360          -3.41796880
    -5.37109360          -1.46484360          -3.41796880
    -5.37109360          -1.46484360          -3.41796880
    -5.37109360          -1.46484360          -3.41796880
    -5.37109360          -1.46484360          -3.41796880
    -5.37109360          -1.46484360          -3.41796880
    -5.37109360          -1.46484360          -3.41796880
    -5.37109360          -1.46484360          -3.41796880
    -5.37109360          -1.46484360          -3.41796880
    -5.37109360          -1.46484360          -3.41796880
    -5.37109360          -1.46484360          -3.41796880
    -5.37109360          -1.46484360          -3.41796880
    -5.37109360          -1.46484360          -3.41796880
    -5.37109360          -1.46484360          -3.41796880
    -5.37109360          -1.46484360          -3.41796880
    -5.37109360          -1.46484360          -3.41796880
    -5.37109360          -1.46484360          -3.41796880
    -5.37109360          -1.46484360          -3.41796880
    -5.37109360          -1.46484360          -3.41796880
    -5.37109360          -1.46484360          -3.41796880
    -5.37109360          -1.46484360          -3.41796880
    -5.37109360          -1.46484360          -3.41796880
    -5.37109360          -1.46484360          -3.41796880
    -5.37109360          -1.46484360          -3.41796880
    -5.37109360          -1.46484360          -3.41796880
    -5.37109360          -1.95312480          -3.41796880
    -5.37109360          -1.95312480          -3.41796880
    -5.37109360          -1.46484360          -3.41796880
    -5.37109360          -1.46484360          -3.41796880
    -5.37109360          -1.46484360          -3.41796880
    -5.37109360          -1.95312480          -3.41796880
    -5.37109360          -1.95312480          -3.41796880
    -5.37109360          -1.46484360          -3.41796880
    -5.37109360          -1.95312480          -3.41796880
    -5.37109360          -1.46484360          -3.41796880
    -5.37109360          -1.95312480          -3.41796880
    -5.37109360          -1.95312480          -3.41796880
    -5.37109360          -1.46484360          -3.41796880
    -5.37109360          -1.46484360          -3.41796880
    -5.37109360          -1.46484360          -3.41796880
    -5.37109360          -1.95312480          -3.41796880
    -5.37109360          -1.46484360          -3.41796880
    -5.37109360          -1.46484360          -3.41796880
    -5.37109360          -1.46484360          -3.41796880
    -5.37109360          -1.46484360          -3.41796880
    -5.37109360          -1.95312480          -3.41796880
    -5.37109360          -1.46484360          -3.41796880
    -5.37109360          -1.46484360          -3.41796880
    -5.37109360          -1.46484360          -3.41796880
    -5.37109360          -1.46484360          -3.41796880
    -5.37109360          -1.46484360          -3.41796880
    -5.37109360          -1.46484360          -3.41796880
    -5.37109360          -1.46484360          -3.41796880
    -5.85937520          -1.46484360          -3.41796880
    -5.37109360          -1.46484360          -3.41796880
    -5.37109360          -1.46484360          -3.41796880
    -5.37109360          -1.46484360          -3.41796880
    -5.85937520          -1.46484360          -3.41796880
    -5.37109360          -1.46484360          -3.41796880
    -5.37109360          -1.46484360          -3.41796880
    -5.37109360          -1.46484360          -3.41796880
    -5.85937520          -1.46484360          -3.41796880
    -5.37109360          -1.46484360          -3.41796880
    -5.37109360          -1.46484360          -3.41796880
    -5.37109360          -1.46484360          -3.41796880
    -5.85937520          -1.46484360          -3.41796880
    -5.85937520          -1.46484360          -3.41796880
    -5.37109360          -1.46484360          -3.41796880
    -5.37109360          -1.46484360          -3.41796880
    -5.37109360          -1.46484360          -3.41796880
    -5.85937520          -1.46484360          -3.41796880
    -5.85937520          -1.46484360          -3.41796880
    -5.37109360          -1.46484360          -3.41796880
    -5.37109360          -1.46484360          -3.41796880
    -5.37109360          -1.46484360          -3.41796880
    -5.37109360          -1.46484360          -3.41796880
    -5.85937520          -1.46484360          -3.41796880
    -5.37109360          -1.46484360          -3.41796880
    -5.85937520          -1.46484360          -3.41796880
    -5.85937520          -1.46484360          -3.41796880
    -5.85937520          -1.46484360          -3.41796880
    -5.85937520          -1.46484360          -3.41796880
    -5.85937520          -1.46484360          -3.41796880
    -5.85937520          -1.46484360          -3.41796880
    -5.85937520          -1.46484360          -3.41796880
    -5.85937520          -1.46484360          -3.41796880
    -5.37109360          -1.46484360          -2.92968760
    -5.37109360          -1.46484360          -3.41796880
    -5.37109360          -1.46484360          -3.41796880
    -5.37109360          -1.46484360          -3.41796880
    -5.85937520          -1.46484360          -3.41796880
    -5.37109360          -1.46484360          -3.41796880
    -5.37109360          -1.46484360          -2.92968760
    -5.37109360          -1.46484360          -3.41796880
    -5.37109360          -1.46484360          -3.41796880
    -5.37109360          -1.46484360          -3.41796880
    -5.37109360          -1.46484360          -2.92968760
    -5.37109360          -1.46484360          -2.92968760
    -5.37109360          -1.46484360          -2.92968760
    -5.37109360          -1.46484360          -3.41796880
    -5.37109360          -1.46484360          -3.41796880
    -5.37109360          -1.46484360          -2.92968760
    -5.37109360          -1.46484360          -3.41796880
    -5.37109360          -1.46484360          -2.92968760
    -5.37109360          -1.46484360          -2.92968760
    -5.37109360          -1.46484360          -2.92968760
    -5.37109360          -1.46484360          -2.92968760
    -5.37109360          -1.46484360          -2.92968760
    -5.37109360          -1.46484360          -2.92968760
    -5.37109360          -1.46484360          -2.92968760
    -5.37109360          -1.46484360          -3.41796880
    -5.37109360          -1.46484360          -2.92968760
    -5.37109360          -1.46484360          -2.92968760
    -5.37109360          -1.46484360          -2.92968760
    -5.37109360          -1.46484360          -2.92968760
    -5.37109360          -1.46484360          -2.92968760
    -5.37109360          -1.46484360          -2.92968760
    -5.37109360          -1.46484360          -2.92968760
    -5.37109360          -1.46484360          -2.92968760
    -5.37109360          -1.46484360          -2.92968760
    -5.37109360          -1.46484360          -2.92968760
    -5.37109360          -1.46484360          -2.92968760
    -5.37109360          -1.46484360          -2.92968760
    -5.37109360          -1.46484360          -2.92968760
    -5.37109360          -1.46484360          -2.92968760
    -5.37109360          -1.46484360          -2.92968760
    -5.37109360          -1.46484360          -2.92968760
    -5.37109360          -1.46484360          -2.92968760
    -5.37109360          -1.46484360          -2.92968760
    -5.37109360          -1.46484360          -2.92968760
    -5.37109360          -1.46484360          -2.92968760
    -5.37109360          -1.46484360          -2.92968760
    -5.37109360          -1.46484360          -2.92968760
    -5.37109360          -1.46484360          -2.92968760
    -5.37109360          -1.46484360          -2.92968760
    -5.37109360          -1.46484360          -2.92968760
    -5.37109360          -1.46484360          -2.92968760
    -5.37109360          -1.46484360          -2.92968760
    -5.37109360          -1.46484360          -2.92968760
    -5.37109360          -1.46484360          -2.92968760
    -5.37109360          -1.46484360          -2.92968760
    -5.37109360          -1.46484360          -2.92968760
    -5.37109360          -1.46484360          -2.92968760
    -5.37109360          -1.46484360          -2.92968760
    -5.37109360          -1.46484360          -2.92968760
    -5.37109360          -1.46484360          -2.92968760
    -5.37109360          -1.46484360          -2.92968760
    -5.37109360          -1.46484360          -2.92968760
    -5.37109360          -1.46484360          -2.92968760
    -4.88281240          -1.46484360          -2.92968760
    -5.37109360          -1.46484360          -2.92968760
    -5.37109360          -1.46484360          -2.92968760
    -5.37109360          -1.46484360          -2.92968760
    -5.37109360          -1.46484360          -2.92968760
    -5.37109360          -1.46484360          -2.92968760
    -5.37109360          -1.46484360          -2.92968760
    -5.37109360          -1.46484360          -2.92968760
    -5.37109360          -1.46484360          -2.92968760
    -5.37109360          -1.46484360          -2.92968760
    -5.37109360          -1.46484360          -2.92968760
    -5.37109360          -1.46484360          -2.92968760
    -5.37109360          -1.46484360          -2.92968760
    -5.37109360          -1.46484360          -2.92968760
    -5.37109360          -1.46484360          -2.92968760
    -5.37109360          -1.46484360          -2.92968760
    -5.37109360          -1.46484360          -2.92968760
    -5.37109360          -1.46484360          -2.92968760
    -5.37109360          -1.46484360          -2.92968760
    -5.37109360          -1.46484360          -2.92968760
    -5.37109360          -1.46484360          -2.92968760
    -5.37109360          -1.46484360          -2.92968760
    -5.37109360          -1.46484360          -2.92968760
    -5.37109360          -1.46484360          -2.92968760
    -5.37109360          -1.46484360          -2.92968760
    -5.37109360          -1.46484360          -2.92968760
    -5.37109360          -1.46484360          -2.92968760
    -5.37109360          -1.46484360          -2.92968760
    -5.37109360          -1.46484360          -2.92968760
    -5.37109360          -1.46484360          -2.92968760
    -5.37109360          -1.46484360          -2.92968760
    -5.37109360          -1.46484360          -2.92968760
    -5.37109360          -1.46484360          -2.92968760
    -5.37109360          -1.46484360          -2.92968760
    -5.37109360          -1.46484360          -2.92968760
    -5.37109360          -1.46484360          -2.92968760
    -5.37109360          -1.46484360          -2.92968760
    -5.37109360          -1.46484360          -2.92968760
    -5.37109360          -1.46484360          -2.92968760
    -5.37109360          -1.46484360          -2.92968760
    -5.37109360          -1.46484360          -2.92968760
    -5.37109360          -1.95312480          -2.92968760
    -5.37109360          -1.95312480          -2.92968760
    -5.37109360          -1.46484360          -2.92968760
    -5.37109360          -1.46484360          -2.92968760
    -5.37109360          -1.46484360          -2.92968760
    -5.37109360          -1.95312480          -2.92968760
    -5.37109360          -1.46484360          -2.92968760
    -5.37109360          -1.46484360          -2.92968760
    -5.37109360          -1.46484360          -2.92968760
    -5.37109360          -1.46484360          -2.92968760
    -5.37109360          -1.95312480          -3.41796880
    -5.37109360          -1.46484360          -2.92968760
    -5.37109360          -1.46484360          -2.92968760
    -5.37109360          -1.46484360          -2.92968760
    -5.37109360          -1.46484360          -2.92968760
    -5.37109360          -1.95312480          -2.92968760
    -5.37109360          -1.46484360          -3.41796880
    -5.37109360          -1.95312480          -2.92968760
    -5.37109360          -1.95312480          -2.92968760
    -5.37109360          -1.95312480          -2.92968760
    -5.37109360          -1.95312480          -2.92968760
    -5.37109360          -1.46484360          -2.92968760
    -5.37109360          -1.95312480          -2.92968760
    -5.37109360          -1.95312480          -2.92968760
    -5.37109360          -1.95312480          -2.92968760
    -5.37109360          -1.95312480          -2.92968760
    -5.37109360          -1.95312480          -2.92968760
    -5.37109360          -1.46484360          -2.92968760
    -5.37109360          -1.95312480          -2.92968760
    -5.37109360          -1.46484360          -2.92968760
    -5.37109360          -1.95312480          -2.92968760
    -5.37109360          -1.95312480          -2.92968760
    -5.37109360          -1.46484360          -2.92968760
    -5.37109360          -1.95312480          -2.92968760
    -5.37109360          -1.46484360          -2.92968760
    -5.37109360          -1.95312480          -2.92968760
    -5.37109360          -1.46484360          -2.92968760
   0.48828120          -6.34765640          -6.83593760
     0.48828120          -6.34765640          -6.83593760
     0.48828120          -6.34765640          -6.83593760
     0.48828120          -6.34765640          -6.83593760
     0.48828120          -6.34765640          -6.83593760
     0.48828120          -6.34765640          -6.83593760
     0.48828120          -6.34765640          -6.83593760
     0.48828120          -6.34765640          -6.83593760
     0.48828120          -6.34765640          -6.83593760
     0.48828120          -6.34765640          -6.83593760
     0.48828120          -6.34765640          -6.83593760
     0.48828120          -6.34765640          -6.83593760
     0.48828120          -6.34765640          -6.83593760
     0.48828120          -6.34765640          -6.83593760
     0.48828120          -6.34765640          -6.83593760
     0.48828120          -6.34765640          -6.83593760
     0.48828120          -6.34765640          -6.83593760
     0.48828120          -6.34765640          -6.83593760
     0.48828120          -6.34765640          -6.83593760
     0.48828120          -6.34765640          -6.83593760
     0.48828120          -6.34765640          -6.83593760
     0.48828120          -6.34765640          -6.83593760
     0.48828120          -6.34765640          -6.83593760
     0.48828120          -6.34765640          -6.83593760
     0.48828120          -6.34765640          -6.83593760
     0.48828120          -6.34765640          -6.83593760
     0.48828120          -6.34765640          -6.83593760
     0.48828120          -6.34765640          -6.83593760
     0.48828120          -6.34765640          -6.83593760
     0.48828120          -6.34765640          -6.83593760
     0.48828120          -6.34765640          -6.83593760
     0.48828120          -6.34765640          -6.83593760
     0.48828120          -6.34765640          -6.83593760
     0.48828120          -6.34765640          -6.83593760
     0.48828120          -6.34765640          -6.83593760
     0.48828120          -6.34765640          -6.83593760
     0.48828120          -5.85937520          -6.83593760
     0.48828120          -6.34765640          -6.83593760
     0.48828120          -5.85937520          -6.83593760
     0.48828120          -6.34765640          -6.83593760
     0.48828120          -5.85937520          -6.83593760
     0.48828120          -5.85937520          -6.83593760
     0.48828120          -5.85937520          -6.83593760
     0.48828120          -5.85937520          -6.83593760
     0.48828120          -5.85937520          -6.83593760
     0.48828120          -5.85937520          -6.83593760
     0.48828120          -5.85937520          -6.83593760
     0.48828120          -5.85937520          -6.83593760
     0.48828120          -5.85937520          -6.83593760
     0.48828120          -5.85937520          -6.83593760
     0.48828120          -5.85937520          -6.83593760
     0.48828120          -5.85937520          -6.83593760
     0.48828120          -5.85937520          -6.83593760
     0.48828120          -5.85937520          -6.83593760
     0.48828120          -5.85937520          -6.83593760
     0.48828120          -5.85937520          -6.83593760
     0.00000000          -5.85937520          -6.83593760
     0.48828120          -5.85937520          -6.83593760
     0.48828120          -5.85937520          -6.83593760
     0.48828120          -5.85937520          -6.83593760
     0.48828120          -5.85937520          -6.83593760
     0.48828120          -5.85937520          -6.83593760
     0.00000000          -5.85937520          -6.83593760
     0.48828120          -5.37109360          -6.83593760
     0.00000000          -5.85937520          -6.83593760
     0.48828120          -5.37109360          -6.83593760
     0.48828120          -5.37109360          -6.83593760
     0.48828120          -5.37109360          -6.83593760
     0.48828120          -5.37109360          -6.83593760
     0.00000000          -5.37109360          -6.83593760
     0.48828120          -5.37109360          -6.83593760
     0.48828120          -5.37109360          -6.83593760
     0.00000000          -5.37109360          -6.83593760
     0.00000000          -5.37109360          -6.83593760
     0.00000000          -5.37109360          -6.83593760
     0.00000000          -5.37109360          -6.83593760
     0.00000000          -5.37109360          -6.83593760
     0.48828120          -5.37109360          -6.83593760
     0.00000000          -5.37109360          -6.83593760
     0.00000000          -5.37109360          -6.83593760
     0.00000000          -5.37109360          -6.83593760
     0.00000000          -5.37109360          -6.83593760
     0.00000000          -5.37109360          -6.83593760
     0.00000000          -5.37109360          -6.83593760
     0.00000000          -5.37109360          -6.83593760
     0.00000000          -5.37109360          -6.83593760
     0.00000000          -5.37109360          -6.83593760
     0.00000000          -5.37109360          -6.83593760
     0.00000000          -5.37109360          -6.83593760
     0.00000000          -5.37109360          -6.83593760
     0.00000000          -5.37109360          -6.83593760
     0.00000000          -5.37109360          -6.83593760
     0.00000000          -5.37109360          -6.83593760
     0.00000000          -5.37109360          -6.83593760
     0.00000000          -5.37109360          -6.83593760
     0.00000000          -5.37109360          -6.83593760
     0.00000000          -5.37109360          -6.83593760
     0.00000000          -5.37109360          -6.83593760
     0.00000000          -5.37109360          -6.83593760
     0.00000000          -5.37109360          -7.32421880
