SERVICIO GEOLOGICO COLOMBIANO- RED NACIONAL DE ACELEROGRAFOS DE COLOMBIA
SISMO DE SAN JOSE DEL PALMAR (CHOCO) 1994/02/28 13:40:08 ML=5
LATITUD DEL EVENTO(GRADOS): 5.099
LONGITUD DEL EVENTO(GRADOS): -76.111
PROFUNDIDAD DEL EVENTO (Km): 120
CODIGO DE LA ESTACION: CANSE
Estacion:ANSERMA Geol:ROCA Topo:ONDULADA
LATITUD DE LA ESTACION (GRADOS): 5.264
LONGITUD DE LA ESTACION (GRADOS): -75.815
DISTANCIA EPICENTRAL: 37.6159003747 km
DISTANCIA HIPOCENTRAL: 125.757528447 km
INTERVALO DE MUESTREO (SEGUNDOS): 0.005
NUMERO DE DATOS: 3328
DURACION (SEGUNDOS): 16.64
UNIDADES: cm/s^2
TIPO DE EQUIPO: SSA
ESCALA MAXIMA (G): 2
CORRECCION DE LINEA BASE: LINEA BASE NO REMOVIDA
TIPO DE DATOS: NO CORREGIDO
         EW                  VER                  NS
[...]
    -6.83593760          -3.90624960         -24.41406240
    -6.83593760          -3.90624960         -24.41406240
    -6.83593760          -3.90624960         -24.41406240
    -6.83593760          -3.90624960         -24.41406240
    -6.83593760          -3.90624960         -25.39062480
    -6.83593760          -4.88281280         -25.39062480
    -6.83593760          -3.90624960         -25.39062480
    -6.83593760          -3.90624960         -25.39062480
    -7.81250000          -3.90624960         -24.41406240
    -7.81250000          -3.90624960         -23.43750000
    -7.81250000          -3.90624960         -23.43750000
    -7.81250000          -3.90624960         -22.46093760
    -7.81250000          -3.90624960         -22.46093760
    -7.81250000          -3.90624960         -21.48437520
    -7.81250000          -3.90624960         -21.48437520
    -7.81250000          -3.90624960         -20.50781280
    -7.81250000          -3.90624960         -20.50781280
    -7.81250000          -3.90624960         -20.50781280
    -7.81250000          -3.90624960         -20.50781280
    -6.83593760          -3.90624960         -21.48437520
    -7.81250000          -3.90624960         -21.48437520
    -7.81250000          -3.90624960         -22.46093760
    -7.81250000          -3.90624960         -23.43750000
    -7.81250000          -3.90624960         -24.41406240
    -7.81250000          -3.90624960         -24.41406240
    -7.81250000          -3.90624960         -25.39062480
    -6.83593760          -3.90624960         -26.36718720
    -6.83593760          -3.90624960         -26.36718720
    -5.85937520          -3.90624960         -26.36718720
    -5.85937520          -3.90624960         -26.36718720
    -5.85937520          -3.90624960         -26.36718720
    -4.88281280          -3.90624960         -25.39062480
    -5.85937520          -3.90624960         -25.39062480
    -6.83593760          -3.90624960         -24.41406240
    -6.83593760          -3.90624960         -23.43750000
    -6.83593760          -3.90624960         -23.43750000
    -7.81250000          -3.90624960         -22.46093760
    -7.81250000          -3.90624960         -21.48437520
    -7.81250000          -3.90624960         -22.46093760
    -7.81250000          -3.90624960         -21.48437520
    -7.81250000          -3.90624960         -22.46093760
    -6.83593760          -3.90624960         -22.46093760
    -6.83593760          -3.90624960         -22.46093760
    -6.83593760          -3.90624960         -23.43750000
    -5.85937520          -3.90624960         -24.41406240
    -6.83593760          -3.90624960         -24.41406240
    -6.83593760          -3.90624960         -25.39062480
    -6.83593760          -3.90624960         -25.39062480
    -6.83593760          -3.90624960         -25.39062480
    -6.83593760          -3.90624960         -25.39062480
    -6.83593760          -3.90624960         -24.41406240
    -6.83593760          -3.90624960         -24.41406240
    -6.83593760          -3.90624960         -23.43750000
    -7.81250000          -3.90624960         -22.46093760
    -7.81250000          -3.90624960         -22.46093760
    -7.81250000          -3.90624960         -21.48437520
    -7.81250000          -3.90624960         -20.50781280
    -7.81250000          -3.90624960         -20.50781280
    -7.81250000          -3.90624960         -21.48437520
    -8.78906240          -3.90624960         -21.48437520
    -8.78906240          -3.90624960         -21.48437520
    -7.81250000          -3.90624960         -22.46093760
    -7.81250000          -3.90624960         -23.43750000
    -6.83593760          -3.90624960         -23.43750000
    -5.85937520          -3.90624960         -24.41406240
    -5.85937520          -3.90624960         -25.39062480
    -5.85937520          -3.90624960         -25.39062480
    -5.85937520          -3.90624960         -25.39062480
    -5.85937520          -3.90624960         -26.36718720
    -5.85937520          -3.90624960         -26.36718720
    -5.85937520          -3.90624960         -26.36718720
    -5.85937520          -3.90624960         -26.36718720
    -6.83593760          -3.90624960         -25.39062480
    -6.83593760          -3.90624960         -25.39062480
    -6.83593760          -3.90624960         -24.41406240
    -6.83593760          -3.90624960         -24.41406240
    -6.83593760          -3.90624960         -23.43750000
    -6.83593760          -3.90624960         -22.46093760
    -5.85937520          -3.90624960         -22.46093760
    -5.85937520          -3.90624960         -22.46093760
    -4.88281280          -3.90624960         -22.46093760
    -5.85937520          -3.90624960         -21.48437520
    -5.85937520          -3.90624960         -21.48437520
    -6.83593760          -3.90624960         -21.48437520
    -6.83593760          -3.90624960         -21.48437520
    -7.81250000          -3.90624960         -21.48437520
    -7.81250000          -3.90624960         -21.48437520
    -8.78906240          -3.90624960         -22.46093760
    -8.78906240          -3.90624960         -22.46093760
    -8.78906240          -3.90624960         -22.46093760
    -8.78906240          -4.88281280         -23.43750000
    -7.81250000          -3.90624960         -24.41406240
    -7.81250000          -4.88281280         -24.41406240
    -7.81250000          -4.88281280         -24.41406240
    -6.83593760          -4.88281280         -25.39062480
    -6.83593760          -4.88281280         -24.41406240
    -6.83593760          -3.90624960         -25.39062480
    -6.83593760          -3.90624960         -24.41406240
    -6.83593760          -3.90624960         -24.41406240
    -6.83593760          -3.90624960         -23.43750000
    -6.83593760          -3.90624960         -23.43750000
    -6.83593760          -3.90624960         -22.46093760
    -6.83593760          -3.90624960         -22.46093760
    -6.83593760          -2.92968720         -22.46093760
    -7.81250000          -3.90624960         -21.48437520
    -7.81250000          -3.90624960         -21.48437520
    -6.83593760          -3.90624960         -22.46093760
    -6.83593760          -3.90624960         -22.46093760
    -6.83593760          -3.90624960         -22.46093760
    -6.83593760          -3.90624960         -22.46093760
    -6.83593760          -3.90624960         -23.43750000
    -5.85937520          -3.90624960         -23.43750000
    -5.85937520          -3.90624960         -23.43750000
    -5.85937520          -3.90624960         -23.43750000
    -6.83593760          -3.90624960         -23.43750000
    -6.83593760          -3.90624960         -24.41406240
    -6.83593760          -3.90624960         -23.43750000
    -7.81250000          -3.90624960         -23.43750000
    -7.81250000          -3.90624960         -22.46093760
    -7.81250000          -3.90624960         -22.46093760
    -7.81250000          -3.90624960         -22.46093760
    -7.81250000          -3.90624960         -23.43750000
    -7.81250000          -3.90624960         -23.43750000
    -7.81250000          -3.90624960         -23.43750000
    -6.83593760          -3.90624960         -24.41406240
    -6.83593760          -3.90624960         -25.39062480
    -6.83593760          -3.90624960         -25.39062480
    -6.83593760          -3.90624960         -25.39062480
    -6.83593760          -3.90624960         -25.39062480
    -5.85937520          -3.90624960         -25.39062480
    -6.83593760          -3.90624960         -24.41406240
    -6.83593760          -3.90624960         -24.41406240
    -6.83593760          -3.90624960         -23.43750000
    -6.83593760          -3.90624960         -22.46093760
    -6.83593760          -3.90624960         -21.48437520
    -7.81250000          -3.90624960         -20.50781280
    -7.81250000          -3.90624960         -19.53124960
    -7.81250000          -3.90624960         -19.53124960
    -7.81250000          -3.90624960         -19.53124960
    -7.81250000          -3.90624960         -19.53124960
    -7.81250000          -3.90624960         -19.53124960
    -7.81250000          -3.90624960         -20.50781280
    -7.81250000          -3.90624960         -21.48437520
    -6.83593760          -3.90624960         -22.46093760
    -6.83593760          -3.90624960         -23.43750000
    -6.83593760          -3.90624960         -25.39062480
    -6.83593760          -3.90624960         -26.36718720
    -6.83593760          -3.90624960         -26.36718720
    -6.83593760          -3.90624960         -27.34375040
    -6.83593760          -3.90624960         -28.32031280
    -7.81250000          -3.90624960         -28.32031280
    -7.81250000          -3.90624960         -27.34375040
    -7.81250000          -3.90624960         -26.36718720
    -7.81250000          -3.90624960         -26.36718720
    -7.81250000          -3.90624960         -25.39062480
    -7.81250000          -3.90624960         -24.41406240
    -6.83593760          -3.90624960         -23.43750000
    -6.83593760          -4.88281280         -23.43750000
    -6.83593760          -3.90624960         -22.46093760
    -6.83593760          -3.90624960         -22.46093760
    -5.85937520          -3.90624960         -22.46093760
    -5.85937520          -3.90624960         -21.48437520
    -5.85937520          -3.90624960         -21.48437520
    -5.85937520          -3.90624960         -21.48437520
    -5.85937520          -3.90624960         -21.48437520
    -5.85937520          -3.90624960         -21.48437520
    -5.85937520          -2.92968720         -21.48437520
    -6.83593760          -2.92968720         -21.48437520
    -6.83593760          -2.92968720         -21.48437520
    -6.83593760          -2.92968720         -21.48437520
    -7.81250000          -2.92968720         -21.48437520
    -7.81250000          -3.90624960         -21.48437520
    -7.81250000          -3.90624960         -22.46093760
    -7.81250000          -3.90624960         -22.46093760
    -7.81250000          -3.90624960         -23.43750000
    -6.83593760          -3.90624960         -23.43750000
    -6.83593760          -3.90624960         -24.41406240
    -6.83593760          -3.90624960         -24.41406240
    -6.83593760          -3.90624960         -24.41406240
    -5.85937520          -3.90624960         -25.39062480
    -5.85937520          -3.90624960         -26.36718720
    -5.85937520          -4.88281280         -26.36718720
    -5.85937520          -4.88281280         -26.36718720
    -6.83593760          -4.88281280         -27.34375040
    -6.83593760          -4.88281280         -27.34375040
    -6.83593760          -4.88281280         -27.34375040
    -6.83593760          -4.88281280         -27.34375040
    -7.81250000          -4.88281280         -26.36718720
    -7.81250000          -4.88281280         -25.39062480
    -7.81250000          -3.90624960         -25.39062480
    -7.81250000          -3.90624960         -23.43750000
    -7.81250000          -3.90624960         -22.46093760
    -6.83593760          -3.90624960         -21.48437520
    -6.83593760          -3.90624960         -19.53124960
    -6.83593760          -3.90624960         -19.53124960
    -6.83593760          -3.90624960         -18.55468720
    -6.83593760          -2.92968720         -18.55468720
    -6.83593760          -3.90624960         -18.55468720
    -6.83593760          -3.90624960         -19.53124960
    -7.81250000          -2.92968720         -20.50781280
    -6.83593760          -2.92968720         -21.48437520
    -6.83593760          -3.90624960         -23.43750000
    -6.83593760          -3.90624960         -23.43750000
    -6.83593760          -3.90624960         -25.39062480
    -5.85937520          -3.90624960         -24.41406240
    -5.85937520          -3.90624960         -25.39062480
    -5.85937520          -3.90624960         -25.39062480
    -5.85937520          -3.90624960         -24.41406240
    -6.83593760          -3.90624960         -24.41406240
    -6.83593760          -3.90624960         -22.46093760
    -7.81250000          -4.88281280         -21.48437520
    -7.81250000          -4.88281280         -21.48437520
    -8.78906240          -3.90624960         -21.48437520
    -8.78906240          -4.88281280         -21.48437520
    -8.78906240          -3.90624960         -21.48437520
    -7.81250000          -3.90624960         -22.46093760
    -6.83593760          -3.90624960         -24.41406240
    -6.83593760          -3.90624960         -25.39062480
    -5.85937520          -3.90624960         -27.34375040
    -5.85937520          -3.90624960         -28.32031280
    -5.85937520          -3.90624960         -29.29687520
    -5.85937520          -3.90624960         -30.27343760
    -5.85937520          -3.90624960         -30.27343760
    -5.85937520          -3.90624960         -29.29687520
    -5.85937520          -4.88281280         -28.32031280
    -6.83593760          -3.90624960         -26.36718720
    -6.83593760          -3.90624960         -24.41406240
    -6.83593760          -3.90624960         -22.46093760
    -6.83593760          -3.90624960         -20.50781280
    -6.83593760          -3.90624960         -18.55468720
    -7.81250000          -3.90624960         -16.60156240
    -7.81250000          -3.90624960         -15.62500000
    -8.78906240          -2.92968720         -15.62500000
    -8.78906240          -2.92968720         -15.62500000
    -9.76562480          -2.92968720         -16.60156240
    -9.76562480          -2.92968720         -17.57812480
    -9.76562480          -3.90624960         -19.53124960
    -8.78906240          -2.92968720         -21.48437520
    -8.78906240          -3.90624960         -22.46093760
    -7.81250000          -3.90624960         -24.41406240
    -6.83593760          -3.90624960         -25.39062480
    -4.88281280          -3.90624960         -27.34375040
    -4.88281280          -3.90624960         -27.34375040
    -3.90624960          -4.88281280         -28.32031280
    -3.90624960          -4.88281280         -28.32031280
    -4.88281280          -4.88281280         -27.34375040
    -4.88281280          -3.90624960         -27.34375040
    -5.85937520          -3.90624960         -26.36718720
    -6.83593760          -3.90624960         -25.39062480
    -7.81250000          -3.90624960         -25.39062480
    -7.81250000          -3.90624960         -24.41406240
    -8.78906240          -3.90624960         -23.43750000
    -8.78906240          -3.90624960         -23.43750000
    -8.78906240          -3.90624960         -23.43750000
    -7.81250000          -3.90624960         -22.46093760
    -7.81250000          -3.90624960         -23.43750000
    -7.81250000          -3.90624960         -22.46093760
    -6.83593760          -3.90624960         -22.46093760
    -6.83593760          -4.88281280         -22.46093760
    -6.83593760          -3.90624960         -22.46093760
    -6.83593760          -3.90624960         -22.46093760
    -6.83593760          -3.90624960         -22.46093760
    -6.83593760          -3.90624960         -22.46093760
    -6.83593760          -3.90624960         -22.46093760
    -6.83593760          -2.92968720         -21.48437520
    -6.83593760          -2.92968720         -21.48437520
    -6.83593760          -3.90624960         -21.48437520
    -6.83593760          -3.90624960         -21.48437520
    -6.83593760          -3.90624960         -21.48437520
    -6.83593760          -3.90624960         -21.48437520
    -6.83593760          -3.90624960         -22.46093760
    -7.81250000          -3.90624960         -22.46093760
    -7.81250000          -3.90624960         -22.46093760
    -7.81250000          -3.90624960         -23.43750000
    -7.81250000          -3.90624960         -24.41406240
    -7.81250000          -3.90624960         -24.41406240
    -7.81250000          -3.90624960         -25.39062480
    -6.83593760          -3.90624960         -26.36718720
    -6.83593760          -4.88281280         -27.34375040
    -6.83593760          -3.90624960         -27.34375040
    -5.85937520          -3.90624960         -27.34375040
    -5.85937520          -4.88281280         -27.34375040
    -5.85937520          -4.88281280         -26.36718720
    -5.85937520          -3.90624960         -25.39062480
    -5.85937520          -3.90624960         -25.39062480
    -5.85937520          -3.90624960         -24.41406240
    -5.85937520          -3.90624960         -22.46093760
    -6.83593760          -3.90624960         -22.46093760
    -7.81250000          -3.90624960         -21.48437520
    -8.78906240          -3.90624960         -20.50781280
    -8.78906240          -3.90624960         -19.53124960
    -9.76562480          -3.90624960         -19.53124960
    -9.76562480          -3.90624960         -18.55468720
    -9.76562480          -3.90624960         -19.53124960
    -8.78906240          -3.90624960         -19.53124960
    -7.81250000          -2.92968720         -20.50781280
    -6.83593760          -3.90624960         -21.48437520
    -5.85937520          -2.92968720         -22.46093760
    -5.85937520          -3.90624960         -23.43750000
    -4.88281280          -3.90624960         -24.41406240
    -4.88281280          -3.90624960         -25.39062480
    -4.88281280          -3.90624960         -26.36718720
    -5.85937520          -3.90624960         -26.36718720
    -5.85937520          -3.90624960         -26.36718720
    -6.83593760          -4.88281280         -25.39062480
    -7.81250000          -4.88281280         -25.39062480
    -7.81250000          -4.88281280         -24.41406240
    -7.81250000          -3.90624960         -24.41406240
    -7.81250000          -3.90624960         -23.43750000
    -7.81250000          -3.90624960         -22.46093760
    -7.81250000          -3.90624960         -23.43750000
    -7.81250000          -3.90624960         -23.43750000
    -6.83593760          -3.90624960         -23.43750000
    -6.83593760          -3.90624960         -24.41406240
    -6.83593760          -3.90624960         -24.41406240
    -5.85937520          -3.90624960         -24.41406240
    -5.85937520          -3.90624960         -25.39062480
    -5.85937520          -3.90624960         -25.39062480
    -5.85937520          -3.90624960         -24.41406240
    -6.83593760          -3.90624960         -23.43750000
    -6.83593760          -3.90624960         -22.46093760
    -7.81250000          -3.90624960         -21.48437520
    -7.81250000          -3.90624960         -20.50781280
    -7.81250000          -3.90624960         -19.53124960
    -7.81250000          -3.90624960         -19.53124960
    -7.81250000          -2.92968720         -18.55468720
    -7.81250000          -2.92968720         -19.53124960
    -7.81250000          -2.92968720         -19.53124960
    -7.81250000          -3.90624960         -20.50781280
    -7.81250000          -3.90624960         -21.48437520
    -7.81250000          -3.90624960         -22.46093760
