SERVICIO GEOLOGICO COLOMBIANO- RED NACIONAL DE ACELEROGRAFOS DE COLOMBIA
SISMO DE LOS SANTOS (SANTANDER) 1994/02/26 11:52:57 ML=5.6
LATITUD DEL EVENTO(GRADOS): 6.82
LONGITUD DEL EVENTO(GRADOS): -73.11
PROFUNDIDAD DEL EVENTO (Km): 160
CODIGO DE LA ESTACION: CPENS
Estacion:PENSILVANIA Geol:ROCA Topo:ONDULADA
LATITUD DE LA ESTACION (GRADOS): 5.393
LONGITUD DE LA ESTACION (GRADOS): -75.161
DISTANCIA EPICENTRAL: 277.343001588 km
DISTANCIA HIPOCENTRAL: 320.186102962 km
INTERVALO DE MUESTREO (SEGUNDOS): 0.005
NUMERO DE DATOS: 4096
DURACION (SEGUNDOS): 20.48
UNIDADES: cm/s^2
TIPO DE EQUIPO: SSA
ESCALA MAXIMA (G): 2
CORRECCION DE LINEA BASE: LINEA BASE NO REMOVIDA
TIPO DE DATOS: NO CORREGIDO
         EW                  VER                  NS
[...]
     8.78906240         -13.67187520           7.81250000
     8.78906240         -13.67187520           8.78906240
     9.76562480         -13.67187520           8.78906240
     9.76562480         -13.67187520           8.78906240
     9.76562480         -13.67187520           8.78906240
    10.74218720         -13.67187520           7.81250000
    10.74218720         -12.69531280           7.81250000
    10.74218720         -12.69531280           6.83593760
    10.74218720         -12.69531280           5.85937520
    10.74218720         -12.69531280           5.85937520
    10.74218720         -12.69531280           4.88281280
     9.76562480         -12.69531280           4.88281280
     9.76562480         -12.69531280           4.88281280
     9.76562480         -11.71875040           3.90624960
     8.78906240         -11.71875040           3.90624960
     8.78906240         -11.71875040           3.90624960
     8.78906240         -11.71875040           2.92968720
     7.81250000         -11.71875040           2.92968720
     7.81250000         -11.71875040           2.92968720
     7.81250000         -11.71875040           1.95312480
     7.81250000         -11.71875040           0.97656240
     6.83593760         -11.71875040           0.00000000
     6.83593760         -11.71875040          -0.97656240
     6.83593760         -11.71875040          -0.97656240
     6.83593760         -11.71875040          -1.95312480
     6.83593760         -12.69531280          -1.95312480
     6.83593760         -12.69531280          -1.95312480
     6.83593760         -12.69531280          -1.95312480
     6.83593760         -12.69531280          -1.95312480
     7.81250000         -12.69531280          -0.97656240
     7.81250000         -12.69531280          -0.97656240
     7.81250000         -12.69531280           0.00000000
     8.78906240         -12.69531280           0.00000000
     9.76562480         -12.69531280           0.97656240
     9.76562480         -12.69531280           0.97656240
     9.76562480         -12.69531280           0.97656240
    10.74218720         -12.69531280           0.97656240
    10.74218720         -12.69531280           0.97656240
    10.74218720         -12.69531280           0.97656240
    10.74218720         -12.69531280           0.97656240
    10.74218720         -12.69531280           0.97656240
    11.71875040         -12.69531280           1.95312480
    11.71875040         -13.67187520           2.92968720
    10.74218720         -13.67187520           2.92968720
    10.74218720         -13.67187520           2.92968720
    10.74218720         -13.67187520           3.90624960
    10.74218720         -12.69531280           4.88281280
    10.74218720         -12.69531280           4.88281280
     9.76562480         -12.69531280           4.88281280
     9.76562480         -12.69531280           4.88281280
     8.78906240         -12.69531280           4.88281280
     8.78906240         -12.69531280           4.88281280
     7.81250000         -12.69531280           4.88281280
     6.83593760         -12.69531280           4.88281280
     6.83593760         -11.71875040           3.90624960
     5.85937520         -11.71875040           3.90624960
     5.85937520         -10.74218720           2.92968720
     5.85937520         -10.74218720           2.92968720
     5.85937520         -10.74218720           2.92968720
     5.85937520         -10.74218720           2.92968720
     5.85937520         -10.74218720           2.92968720
     5.85937520         -10.74218720           2.92968720
     5.85937520         -10.74218720           2.92968720
     6.83593760         -10.74218720           2.92968720
     6.83593760         -10.74218720           2.92968720
     6.83593760         -10.74218720           2.92968720
     7.81250000         -11.71875040           2.92968720
     8.78906240         -11.71875040           1.95312480
     8.78906240         -11.71875040           1.95312480
     9.76562480         -11.71875040           0.97656240
     9.76562480         -12.69531280           0.97656240
    10.74218720         -12.69531280           0.97656240
    10.74218720         -12.69531280           0.97656240
    10.74218720         -12.69531280           0.97656240
    10.74218720         -13.67187520           0.97656240
    10.74218720         -13.67187520           1.95312480
    10.74218720         -14.64843760           2.92968720
    10.74218720         -14.64843760           3.90624960
     9.76562480         -14.64843760           3.90624960
     9.76562480         -14.64843760           4.88281280
     9.76562480         -14.64843760           5.85937520
     8.78906240         -14.64843760           5.85937520
     8.78906240         -14.64843760           6.83593760
     8.78906240         -14.64843760           6.83593760
     7.81250000         -15.62500000           5.85937520
     7.81250000         -15.62500000           5.85937520
     7.81250000         -14.64843760           5.85937520
     7.81250000         -14.64843760           5.85937520
     8.78906240         -14.64843760           5.85937520
     7.81250000         -13.67187520           5.85937520
     8.78906240         -13.67187520           5.85937520
     8.78906240         -12.69531280           5.85937520
     8.78906240         -12.69531280           5.85937520
     8.78906240         -12.69531280           5.85937520
     8.78906240         -12.69531280           6.83593760
     9.76562480         -12.69531280           6.83593760
     9.76562480         -12.69531280           6.83593760
     9.76562480         -12.69531280           7.81250000
     9.76562480         -12.69531280           7.81250000
    10.74218720         -12.69531280           6.83593760
    10.74218720         -12.69531280           6.83593760
    10.74218720         -11.71875040           5.85937520
    10.74218720         -11.71875040           5.85937520
    10.74218720         -11.71875040           4.88281280
    10.74218720         -11.71875040           2.92968720
    10.74218720         -10.74218720           1.95312480
     9.76562480         -10.74218720           0.97656240
     8.78906240         -10.74218720           0.97656240
     7.81250000         -10.74218720           0.00000000
     6.83593760         -10.74218720           0.00000000
     5.85937520         -11.71875040           0.00000000
     4.88281280         -11.71875040           0.00000000
     4.88281280         -11.71875040           0.00000000
     3.90624960         -11.71875040           0.00000000
     2.92968720         -11.71875040           0.00000000
     2.92968720         -12.69531280           0.00000000
     3.90624960         -12.69531280           0.00000000
     3.90624960         -12.69531280          -0.97656240
     4.88281280         -12.69531280          -1.95312480
     5.85937520         -12.69531280          -2.92968720
     7.81250000         -12.69531280          -2.92968720
     8.78906240         -13.67187520          -3.90624960
     9.76562480         -13.67187520          -3.90624960
    11.71875040         -12.69531280          -3.90624960
    12.69531280         -13.67187520          -3.90624960
    13.67187520         -12.69531280          -3.90624960
    13.67187520         -12.69531280          -3.90624960
    14.64843760         -12.69531280          -2.92968720
    14.64843760         -12.69531280          -1.95312480
    14.64843760         -12.69531280          -0.97656240
    13.67187520         -12.69531280           0.00000000
    13.67187520         -12.69531280           0.97656240
    13.67187520         -12.69531280           1.95312480
    12.69531280         -12.69531280           2.92968720
    12.69531280         -12.69531280           2.92968720
    11.71875040         -12.69531280           3.90624960
    11.71875040         -11.71875040           4.88281280
    10.74218720         -11.71875040           4.88281280
    10.74218720         -11.71875040           4.88281280
     9.76562480         -11.71875040           5.85937520
     9.76562480         -11.71875040           5.85937520
     8.78906240         -11.71875040           6.83593760
     8.78906240         -11.71875040           6.83593760
     7.81250000         -11.71875040           6.83593760
     6.83593760         -12.69531280           7.81250000
     6.83593760         -12.69531280           7.81250000
     6.83593760         -12.69531280           7.81250000
     6.83593760         -12.69531280           7.81250000
     5.85937520         -12.69531280           7.81250000
     5.85937520         -12.69531280           6.83593760
     5.85937520         -12.69531280           7.81250000
     5.85937520         -12.69531280           6.83593760
     5.85937520         -12.69531280           6.83593760
     5.85937520         -12.69531280           6.83593760
     5.85937520         -12.69531280           6.83593760
     5.85937520         -12.69531280           6.83593760
     5.85937520         -12.69531280           6.83593760
     5.85937520         -12.69531280           7.81250000
     6.83593760         -12.69531280           7.81250000
     6.83593760         -12.69531280           7.81250000
     6.83593760         -12.69531280           7.81250000
     6.83593760         -12.69531280           7.81250000
     7.81250000         -12.69531280           7.81250000
     7.81250000         -12.69531280           6.83593760
     7.81250000         -12.69531280           6.83593760
     7.81250000         -12.69531280           5.85937520
     8.78906240         -12.69531280           4.88281280
     8.78906240         -12.69531280           3.90624960
     8.78906240         -11.71875040           2.92968720
     8.78906240         -12.69531280           1.95312480
     8.78906240         -12.69531280           1.95312480
     8.78906240         -12.69531280           0.97656240
     8.78906240         -12.69531280           0.97656240
     8.78906240         -12.69531280           0.00000000
     9.76562480         -12.69531280          -0.97656240
     9.76562480         -12.69531280          -0.97656240
    10.74218720         -12.69531280          -1.95312480
    11.71875040         -12.69531280          -2.92968720
    11.71875040         -12.69531280          -2.92968720
    12.69531280         -12.69531280          -3.90624960
    13.67187520         -12.69531280          -4.88281280
    13.67187520         -12.69531280          -4.88281280
    13.67187520         -12.69531280          -4.88281280
    13.67187520         -11.71875040          -4.88281280
    13.67187520         -12.69531280          -5.85937520
    12.69531280         -12.69531280          -4.88281280
    12.69531280         -12.69531280          -4.88281280
    12.69531280         -12.69531280          -4.88281280
    11.71875040         -12.69531280          -3.90624960
    11.71875040         -12.69531280          -3.90624960
    11.71875040         -12.69531280          -2.92968720
    10.74218720         -12.69531280          -1.95312480
     9.76562480         -12.69531280          -0.97656240
     9.76562480         -12.69531280           0.00000000
     8.78906240         -12.69531280           0.97656240
     8.78906240         -12.69531280           2.92968720
     7.81250000         -13.67187520           4.88281280
     6.83593760         -13.67187520           5.85937520
     6.83593760         -13.67187520           7.81250000
     6.83593760         -13.67187520           8.78906240
     6.83593760         -13.67187520           9.76562480
     5.85937520         -13.67187520           9.76562480
     6.83593760         -13.67187520          10.74218720
     6.83593760         -13.67187520          10.74218720
     6.83593760         -13.67187520          10.74218720
     6.83593760         -13.67187520          10.74218720
     6.83593760         -13.67187520          11.71875040
     6.83593760         -13.67187520          11.71875040
     6.83593760         -13.67187520          12.69531280
     6.83593760         -13.67187520          12.69531280
     6.83593760         -13.67187520          12.69531280
     6.83593760         -13.67187520          12.69531280
     6.83593760         -13.67187520          12.69531280
     6.83593760         -12.69531280          11.71875040
     7.81250000         -12.69531280          11.71875040
     7.81250000         -12.69531280          10.74218720
     7.81250000         -12.69531280           9.76562480
     8.78906240         -12.69531280           8.78906240
     8.78906240         -12.69531280           7.81250000
     8.78906240         -12.69531280           6.83593760
     8.78906240         -11.71875040           5.85937520
     7.81250000         -11.71875040           4.88281280
     7.81250000         -11.71875040           2.92968720
     7.81250000         -11.71875040           1.95312480
     6.83593760         -11.71875040           0.00000000
     6.83593760         -10.74218720          -0.97656240
     6.83593760         -10.74218720          -2.92968720
     5.85937520         -10.74218720          -3.90624960
     5.85937520         -10.74218720          -4.88281280
     5.85937520         -10.74218720          -5.85937520
     6.83593760         -10.74218720          -6.83593760
     6.83593760         -10.74218720          -7.81250000
     6.83593760         -10.74218720          -7.81250000
     7.81250000         -10.74218720          -7.81250000
     8.78906240         -10.74218720          -7.81250000
     9.76562480         -11.71875040          -7.81250000
    10.74218720         -11.71875040          -7.81250000
    12.69531280         -11.71875040          -7.81250000
    13.67187520         -11.71875040          -6.83593760
    14.64843760         -12.69531280          -6.83593760
    15.62500000         -12.69531280          -6.83593760
    15.62500000         -12.69531280          -5.85937520
    15.62500000         -12.69531280          -4.88281280
    15.62500000         -12.69531280          -3.90624960
    14.64843760         -13.67187520          -2.92968720
    13.67187520         -13.67187520          -1.95312480
    12.69531280         -14.64843760           0.00000000
    11.71875040         -14.64843760           0.97656240
     9.76562480         -14.64843760           2.92968720
     8.78906240         -14.64843760           3.90624960
     6.83593760         -14.64843760           4.88281280
     5.85937520         -14.64843760           6.83593760
     4.88281280         -14.64843760           7.81250000
     3.90624960         -14.64843760           8.78906240
     2.92968720         -14.64843760           8.78906240
     2.92968720         -14.64843760           9.76562480
     2.92968720         -13.67187520          10.74218720
     3.90624960         -13.67187520          10.74218720
     3.90624960         -12.69531280          11.71875040
     4.88281280         -13.67187520          11.71875040
     5.85937520         -12.69531280          11.71875040
     6.83593760         -12.69531280          11.71875040
     7.81250000         -12.69531280          11.71875040
     8.78906240         -12.69531280          11.71875040
     9.76562480         -12.69531280          10.74218720
    10.74218720         -11.71875040           9.76562480
    11.71875040         -11.71875040           8.78906240
    12.69531280         -11.71875040           7.81250000
    12.69531280         -10.74218720           6.83593760
    12.69531280         -10.74218720           6.83593760
    12.69531280         -10.74218720           5.85937520
    12.69531280         -10.74218720           4.88281280
    12.69531280         -10.74218720           4.88281280
    12.69531280         -10.74218720           3.90624960
    11.71875040         -10.74218720           3.90624960
    11.71875040         -10.74218720           3.90624960
    11.71875040         -11.71875040           2.92968720
    11.71875040         -11.71875040           2.92968720
    10.74218720         -11.71875040           1.95312480
    10.74218720         -11.71875040           0.97656240
    10.74218720         -12.69531280           0.97656240
     9.76562480         -12.69531280           0.97656240
     9.76562480         -12.69531280           0.00000000
     8.78906240         -12.69531280           0.00000000
     7.81250000         -13.67187520          -0.97656240
     7.81250000         -13.67187520          -0.97656240
     6.83593760         -13.67187520          -0.97656240
     6.83593760         -13.67187520          -0.97656240
     5.85937520         -13.67187520          -0.97656240
     5.85937520         -14.64843760           0.00000000
     5.85937520         -14.64843760           0.00000000
     5.85937520         -14.64843760           0.00000000
     5.85937520         -14.64843760           0.97656240
     6.83593760         -14.64843760           0.97656240
     7.81250000         -14.64843760           0.97656240
     8.78906240         -13.67187520           0.97656240
     8.78906240         -13.67187520           1.95312480
     9.76562480         -13.67187520           2.92968720
    10.74218720         -13.67187520           2.92968720
    10.74218720         -13.67187520           2.92968720
    10.74218720         -12.69531280           3.90624960
    10.74218720         -12.69531280           3.90624960
    10.74218720         -12.69531280           3.90624960
     9.76562480         -12.69531280           4.88281280
     9.76562480         -11.71875040           4.88281280
     8.78906240         -11.71875040           4.88281280
     7.81250000         -11.71875040           4.88281280
     7.81250000         -11.71875040           4.88281280
     6.83593760         -11.71875040           4.88281280
     6.83593760         -11.71875040           3.90624960
     5.85937520         -11.71875040           3.90624960
     5.85937520         -11.71875040           3.90624960
     4.88281280         -11.71875040           2.92968720
     4.88281280         -11.71875040           1.95312480
     4.88281280         -11.71875040           1.95312480
     4.88281280         -11.71875040           0.97656240
     5.85937520         -12.69531280           0.97656240
     5.85937520         -11.71875040           0.00000000
     6.83593760         -12.69531280           0.00000000
     6.83593760         -11.71875040          -0.97656240
     7.81250000         -12.69531280          -0.97656240
     7.81250000         -11.71875040          -0.97656240
     7.81250000         -11.71875040           0.00000000
     7.81250000         -11.71875040           0.97656240
     7.81250000         -11.71875040           0.97656240
     8.78906240         -11.71875040           1.95312480
     7.81250000         -12.69531280           1.95312480
     8.78906240         -12.69531280           2.92968720
     8.78906240         -12.69531280           3.90624960
     8.78906240         -12.69531280           4.88281280
     8.78906240         -12.69531280           4.88281280
